Account__c,RecordTypeId,Type__c,Status__c,CurrencyIsoCode,AutoRenewal__c,Primary__c,BillingConditions__c,InvoiceSendingMethod__c,PaymentMethod__c,SendInvoiceTo__c,BillingInstructions__c,PurchaseOrderRequired__c,PurchaseOrderReference__c,PurchaseOrderRequestDate__c,BillingBusinessName__c,BillingDepartment__c,BillingAddress__Street__s,BillingAddress__City__s,BillingAddress__PostalCode__s,BillingAddress__CountryCode__s,ShippingBusinessName__c,ShippingDepartment__c,ShippingAddress__Street__s,ShippingAddress__City__s,ShippingAddress__CountryCode__s,BillingContact__c,CashCollectionContact__c,SourceOpportunity__c
001IV000015S8iwYAC,012IV000001yk7WYAQ,Renewal,Backlog,EUR,true,false,30 days,Email,Transfer,0nly.invoices.placoplatre@saint-gobain.com,Redevance 2026,false,,,PLACOPLATRE sa - Usine Placo de Chambéry,Ressources Humaines,Z.I de Bissy - 456 rue Emile Romanet,CHAMBERY,73026,FR,PLACOPLATRE sa - Usine Placo de Chambéry,Facture originale électronique à,0nly.invoices.placoplatre@saint-gobain.com,.,FR,003IV000010tSmVYAU,003IV000010tSmVYAU,006ci00000SqrRYAAZ
001IV000015SAHsYAO,012IV000001yk7WYAQ,Renewal,Backlog,EUR,true,false,30 days,Paper,Transfer,,Redevance 2026,false,,,GROUPE SAB - FINANCIERE D'AZOLETTE sa,,1077 Route des 4 vents,BELMONT DE LA LOIRE,42670,FR,GROUPE SAB - FINANCIERE D'AZOLETTE sa,,1077 Route des 4 vents,BELMONT DE LA LOIRE,FR,003IV000010tTsfYAE,003IV000010tTsfYAE,006ci00000SqrRZAAZ
001IV000015SAI5YAO,012IV000001yk7WYAQ,Renewal,Backlog,EUR,true,false,30 days,Paper,Transfer,,Redevance 2026,true,,2026-01-01,OFFICE PUBLIC DE L'HABITAT DU DEPARTEMENT DE SEINE-MARITIME,HABITAT 76 - Service RHEC,112 Boulevard d'Orléans,ROUEN,76100,FR,OFFICE PUBLIC DE L'HABITAT DU DEPARTEMENT DE SEINE-MARITIME,HABITAT 76 - Service RHEC,112 Boulevard d'Orléans,ROUEN,FR,003IV000010rLj2YAE,003IV000010rLj2YAE,006ci00000SqrRaAAJ
001IV000015S2eCYAS,012IV000001yk7WYAQ,Renewal,Backlog,EUR,true,false,30 days,Email,Transfer,144.accountspayable@ap.tetrapak.com,Redevance 2026,false,,,PAPETERIES DE DIJON snc,,3 rue Romelet,LONGVIC,21600,FR,PAPETERIES DE DIJON snc,Facture originale électronique à,144.accountspayable@ap.tetrapak.com,.,FR,003IV000010tRVxYAM,003IV000010tRVxYAM,006ci00000SqrRbAAJ
001IV000015S541YAC,012IV000001yk7WYAQ,Renewal,Backlog,EUR,true,false,30 days,Paper,Transfer,,Redevance 2026,false,,,SNCF DOMAINE MATERIEL,,16 rue Simone Veil,SAINT-OUEN-SUR-SEINE,93400,FR,SNCF DOMAINE MATERIEL,,16 rue Simone Veil,SAINT-OUEN-SUR-SEINE,FR,003IV000010tNmEYAU,003IV000010tSjCYAU,006ci00000SqrRcAAJ
001IV000015S8izYAC,012IV000001yk7WYAQ,Renewal,Backlog,EUR,true,false,30 days,Paper,Transfer,,Redevance 2026,true,,2026-01-01,AGENCE NATIONALE DES TITRES SECURISES,,18 Rue Irénee Carré,CHARLEVILLE-MEZIERES,8800,FR,AGENCE NATIONALE DES TITRES SECURISES,,18 Rue Irénee Carré,CHARLEVILLE-MEZIERES,FR,003IV000010tSnVYAU,003IV000010tSnVYAU,006ci00000SqrRdAAJ
001IV000015S2eOYAS,012IV000001yk7WYAQ,Renewal,Backlog,EUR,true,false,30 days,Paper,Transfer,,Redevance 2026,false,,,MONT BLANC sas,RH,2 rue du Capitaine Rex Combs,CHEF DU PONT,50480,FR,MONT BLANC sas,,2 rue du Capitaine Rex Combs,CHEF DU PONT,FR,003IV000010t1w0YAA,003IV000010t1w0YAA,006ci00000SqrReAAJ
001IV000015S868YAC,012IV000001yk7WYAQ,Renewal,Backlog,EUR,true,false,30 days,Paper,Transfer,,Redevance 2026,false,,,GROUPE SFPI sa,,20 Rue de L'Arc de Triomphe,PARIS,75017,FR,GROUPE SFPI sa,,20 Rue de L'Arc de Triomphe,PARIS,FR,003IV000010tIdSYAU,003IV000010tIdSYAU,006ci00000SqrRfAAJ
001IV000015SAI6YAO,012IV000001yk7WYAQ,Renewal,Backlog,EUR,true,false,30 days,Paper,Transfer,,Redevance 2026,false,,,BACCARAT sa,,20 Rue des Cristalleries,BACCARAT,54120,FR,BACCARAT sa,,20 Rue des Cristalleries,BACCARAT,FR,003IV000010su8iYAA,003IV000010su8iYAA,006ci00000SqrRgAAJ
001IV000015RyE0YAK,012IV000001yk7WYAQ,Renewal,Backlog,EUR,true,false,45 days,Paper,Transfer,,Redevance 2026,true,,2026-01-01,McBRIDE S.A.S,,20 Rue Gustave Flaubert,MOYAUX,14590,FR,McBRIDE S.A.S,,20 Rue Gustave Flaubert,MOYAUX,FR,003IV000010tJZpYAM,003IV000010tJZpYAM,006ci00000SqrRhAAJ
001IV000015SAFeYAO,012IV000001yk7WYAQ,Renewal,Backlog,EUR,true,false,30 days,Paper,Transfer,,Redevance 2026,false,,,PASTACORP TRAITEUR sas,Ressources Humaines,21 Rue de Borolan,CHAMBERY,73000,FR,PASTACORP TRAITEUR sas,,21 Rue de Borolan,CHAMBERY,FR,003IV000010rvHPYAY,003IV000010rvHFYAY,006ci00000SqrRiAAJ
001IV000015RhU6YAK,012IV000001yk7WYAQ,Renewal,Backlog,EUR,true,false,30 days,Paper,Transfer,,Redevance 2026,false,,,AUTAJON SERVICES sasu,,36 route d'Espeluche- CS 40149,MONTELIMAR CEDEX,26216,FR,AUTAJON SERVICES sasu,,36 route d'Espeluche- CS 40149,MONTELIMAR CEDEX,FR,003IV000010rv3eYAA,003IV000010t2ZTYAY,006ci00000SqrRjAAJ
001IV000015RyDxYAK,012IV000001yk7WYAQ,Renewal,Backlog,EUR,true,false,30 days,Paper,Transfer,,Redevance 2026,false,,,POINT. P S.A.S.,IDF - BCR,9 rue Chappe Gessalin,BRIE COMTE ROBERT,77170,FR,POINT P IDF,,4 Boulevard Jean Moulin -  CS10429,NANTES,FR,003IV000010rlbQYAQ,003IV000010rlbQYAQ,006ci00000SqrRkAAJ
001IV000015S8iTYAS,012IV000001yk7WYAQ,Renewal,Backlog,EUR,true,false,30 days,Paper,Transfer,,Redevance 2026,false,,,LIS France sa,Service RH,67 rue de la Gare,CERENCES,50510,FR,LIS France sa,,67 rue de la Gare,CERENCES,FR,003IV000010sxFvYAI,003IV000010tRVeYAM,006ci00000SqrRlAAJ
001IV000015RyDjYAK,012IV000001yk7WYAQ,Renewal,Backlog,EUR,true,false,30 days,Paper,Transfer,,Redevance 2026,false,,,ALMA SA,,70 Avenue des Sources,SAINT- YORRE,3270,FR,ALMA SA,,70 Avenue des Sources,SAINT- YORRE,FR,003IV000010tJXDYA2,003IV000010tJXDYA2,006ci00000SqrRmAAJ
001IV000015S50LYAS,012IV000001yk7WYAQ,Renewal,Backlog,EUR,true,false,30 days,Paper,Transfer,,Redevance 2026,false,,,SENIOR AEROSPACE ERMETO SAS,,8 rue du Clos Thomas - BP 30,FOSSÉ,41330,FR,SENIOR AEROSPACE ERMETO SAS,,8 rue du Clos Thomas - BP 30,FOSSÉ,FR,003IV000010tQI5YAM,003IV000010tQI6YAM,006ci00000SqrRnAAJ
001IV000015SAI9YAO,012IV000001yk7WYAQ,Renewal,Backlog,EUR,true,false,30 days,Email,Transfer,acano@elydan.eu,Redevance 2026,false,,,ELYDAN sas,Ressources Humaines,127 Avenue Louis Bleriot,SAINT ETIENNE DE SAINT GEOIRS,38590,FR,ELYDAN sas,Facture originale électronique à,acano@elydan.eu,.,FR,003IV000010sqLJYAY,003IV000010sqLKYAY,006ci00000SqrRoAAJ
001IV000015RyL0YAK,012IV000001yk7WYAQ,Renewal,Backlog,EUR,true,false,30 days,Email,Transfer,account.payable@revima.fr,Redevance 2026,false,,,REVIMA sasu,,1 Avenue du Latham 47,RIVES-EN-SEINE,76490,FR,REVIMA sasu,Facture originale électronique à,account.payable@revima.fr,.,FR,003IV000010tIiXYAU,003IV000010tIiXYAU,006ci00000SqrRpAAJ
001IV000015S50KYAS,012IV000001yk7WYAQ,Renewal,Backlog,EUR,true,false,30 days,Email,Transfer,accounting.millet@milletmountaingroup.com,Redevance 2026,false,,,MILLET MOUNTAIN GROUP SAS,,21 rue du Pré Faucon,ANNECY LE VIEUX CEDEX,74943,FR,MILLET MOUNTAIN GROUP SAS,Facture originale électronique à,accounting.millet@milletmountaingroup.com,.,FR,003IV000010tQIMYA2,003IV000010tQIMYA2,006ci00000SqrRqAAJ
001IV000015SAHqYAO,012IV000001yk7WYAQ,Renewal,Backlog,EUR,true,false,30 days,Email,Transfer,accounts-payable.besancon@fci.com,Redevance 2026,false,,,AMPHENOL FCI BESANCON sas,,2 Rue Lafayette,BESANCON,25000,FR,AMPHENOL FCI BESANCON sas,Facture originale électronique à,accounts-payable.besancon@fci.com,.,FR,003IV000010t1XAYAY,003IV000010t1XAYAY,006ci00000SqrRrAAJ
001IV000015RyDiYAK,012IV000001yk7WYAQ,Renewal,Backlog,EUR,true,false,30 days,Email,Transfer,AccountsPayableFrance@Tenneco.com,Redevance 2026,false,,,TENNECO AUTOMOTIVE FRANCE SAS,,ZA des Giraumeries,SAINT BERTHEVIN,53940,FR,TENNECO AUTOMOTIVE FRANCE SAS,Facture originale électronique à,AccountsPayableFrance@Tenneco.com,.,FR,003IV000010tJXCYA2,003IV000010tJXCYA2,006ci00000SqrRsAAJ
001IV000015S2SQYA0,012IV000001yk7WYAQ,Renewal,Backlog,EUR,true,false,60 days,Email,Transfer,accueilfactures.excelvision@fareva.com,Redevance 2026,false,,,EXCELVISION sas,,27 Rue de la Lombardière,ANNONAY,7100,FR,EXCELVISION sas,Facture originale électronique à,accueilfactures.excelvision@fareva.com,.,FR,003IV000010t687YAA,003IV000010t688YAA,006ci00000SqrRtAAJ
001IV000015RyDzYAK,012IV000001yk7WYAQ,Renewal,Backlog,EUR,true,false,30 days,Email,Transfer,adminlallemand@lafuma-mobilier.fr,Redevance 2026,false,,,LALLEMAND SAS,,Le Balmay,VIEU D'IZENAVE,1430,FR,LALLEMAND SAS,Facture originale électronique à,adminlallemand@lafuma-mobilier.fr,.,FR,003IV000010su8mYAA,003IV000010su8mYAA,006ci00000SqrRuAAJ
001IV000015S85hYAC,012IV000001yk7WYAQ,Renewal,Backlog,EUR,true,false,30 days,Email,Transfer,alexandra.rongy@ksb.com,Redevance 2026,false,,,KSB SAS,,Allée de Sagan,CHATEAUROUX,36000,FR,KSB SAS,Facture originale électronique à,alexandra.rongy@ksb.com,.,FR,003IV000010tIdmYAE,003IV000010sxGoYAI,006ci00000SqrRvAAJ
001IV000015S867YAC,012IV000001yk7WYAQ,Renewal,Backlog,EUR,true,false,30 days,Email,Transfer,alexandragrossat@berryglobal.com,Redevance 2026,true,,2026-01-01,PROMENS SA,,5 Rue Castellion,BELLIGNAT,01100,FR,PROMENS SA,Facture originale électronique à,alexandragrossat@berryglobal.com,.,FR,003IV000010su8aYAA,003IV000010su8aYAA,006ci00000SqrRwAAJ
001IV000015S50OYAS,012IV000001yk7WYAQ,Renewal,Backlog,EUR,true,false,45 days,Email,Transfer,amelie.chesneau@danfoss.com,Redevance 2026,true,,2026-01-01,DANFOSS COMMERCIAL COMPRESSORS sa,Comptabilité,ZI de Reyrieux - BP331,TREVOUX,1600,FR,DANFOSS COMMERCIAL COMPRESSORS sa,Facture originale électronique à,amelie.chesneau@danfoss.com,.,FR,003IV000010t7J0YAI,003IV000010tIiJYAU,006ci00000SqrRxAAJ
001IV000015RyDwYAK,012IV000001yk7WYAQ,Renewal,Backlog,EUR,true,false,30 days,Email,Transfer,amelie.rousselot@francos.fr,Redevance 2026,false,,,FRANCOS sasu,,1 Rue des Mardeaux,BLOIS,41000,FR,FRANCOS sasu,Facture originale électronique à,amelie.rousselot@francos.fr,.,FR,003IV000010t2BcYAI,003IV000010t2BcYAI,006ci00000SqrRyAAJ
001IV000015S2eKYAS,012IV000001yk7WYAQ,Renewal,Backlog,EUR,true,false,30 days,Email,Transfer,andrea.cametti@voestalpine.com,Redevance 2026,false,,,VOESTALPINE AUTOMOTIVE COMPONENTS FONTAINE sa,,Zac de l'Aéroparc,FONTAINE,90150,FR,VOESTALPINE AUTOMOTIVE COMPONENTS FONTAINE sa,Facture originale électronique à,andrea.cametti@voestalpine.com,.,FR,003IV000010su9YYAQ,003IV000010su9YYAQ,006ci00000SqrRzAAJ
001IV000015S8j3YAC,012IV000001yk7WYAQ,Renewal,Backlog,EUR,true,false,60 days,Email,Transfer,ap.biospringer@lesaffre.com,Redevance 2026,true,,2026-01-01,BIO SPRINGER sa,Ressources Humaines,103 Rue Jean Jaurès,MAISONS-ALFORT,94700,FR,BIO SPRINGER sa,Facture originale électronique à,ap.biospringer@lesaffre.com,.,FR,003IV000010tSnLYAU,003IV000010sqM3YAI,006ci00000SqrS0AAJ
001IV000015S8jFYAS,012IV000001yk7WYAQ,Renewal,Backlog,EUR,true,false,30 days,Email,Transfer,ap.invoicesnemeralaverpilliere@nemera.net,Redevance 2026,true,,2026-01-01,NEMERA LA VERPILIERE sas,,20 Avenue de la Gare,LA VERPILLIERE,38290,FR,NEMERA LA VERPILIERE sas,Facture originale électronique à,ap.invoicesnemeralaverpilliere@nemera.net,.,FR,003IV000010su9XYAQ,003IV000010su9XYAQ,006ci00000SqrS1AAJ
001IV000015S862YAC,012IV000001yk7WYAQ,Renewal,Backlog,EUR,true,false,30 days,Email,Transfer,ap_invoices_fr@ksb.com,Redevance 2026,false,,,KSB SAS,Comptabilité fournisseurs,4 Allée des Barbanniers,GENNEVILLIERS,92230,FR,KSB SAS,Facture originale électronique à,ap_invoices_fr@ksb.com,.,FR,003IV000010su8fYAA,003IV000010su8gYAA,006ci00000SqrS2AAJ
001IV000015S2SUYA0,012IV000001yk7WYAQ,Renewal,Backlog,EUR,true,false,30 days,Email,Transfer,ap3110ivcfranceoperations@invacare.com,Redevance 2026,false,,,INVACARE FRANCE OPERATIONS SAS,,Route de Saint- Roch,FONDETTES,37230,FR,INVACARE FRANCE OPERATIONS SAS,Facture originale électronique à,ap3110ivcfranceoperations@invacare.com,.,FR,003IV000010su8kYAA,003IV000010su8kYAA,006ci00000SqrS3AAJ
001IV000015RyECYA0,012IV000001yk7WYAQ,Renewal,Backlog,EUR,true,false,30 days,Email,Transfer,apchemvironparentis.ccc@kuraray.com,Redevance 2026,true,,2026-01-01,CHEMVRION PARENTIS SAS,,58 Avenue de Wagram,PARIS,75017,FR,CHEMVRION PARENTIS SAS,Facture originale électronique à,apchemvironparentis.ccc@kuraray.com,.,FR,003IV000010t9wwYAA,003IV000010t9wwYAA,006ci00000SqrS4AAJ
001IV000015RzTQYA0,012IV000001yk7WYAQ,Renewal,Backlog,EUR,true,false,60 days,Email,Transfer,apinvoicesdunkerque@astrazeneca.com,Redevance 2026,true,,2026-01-01,ASTRA ZENECA DUNKERQUE PRODUCTION scs,,224 Avenue de la Dordogne,DUNKERQUE,59640,FR,ASTRA ZENECA DUNKERQUE PRODUCTION scs,Facture originale électronique à,apinvoicesdunkerque@astrazeneca.com,.,FR,003IV000010tJa7YAE,003IV000010tJa7YAE,006ci00000SqrS5AAJ
001IV000015RhU5YAK,012IV000001yk7WYAQ,Renewal,Backlog,EUR,true,false,30 days,Email,Transfer,apinvoicesfr@ball.com,Redevance 2026,false,,,BALL PACKAGING EUROPE FRANCE sasu,,Zone d'Entreprises de Bergues,BIERNE,59380,FR,BALL PACKAGING EUROPE FRANCE sasu,Facture originale électronique à,apinvoicesfr@ball.com,.,FR,003IV000010t2FaYAI,003IV000010t2FaYAI,006ci00000SqrS6AAJ
001IV000015RzTcYAK,012IV000001yk7WYAQ,Renewal,Backlog,EUR,true,false,30 days,Email,Transfer,ARBCOMPTACRF@crl.com,Redevance 2026,false,,,CHARLES RIVER LABORATORIES FRANCE - C.R.L.F. sasu,COMPTABILITE,327 Impasse du Domaine Rozier,SAINT GERMAIN NUELLES,69210,FR,CHARLES RIVER LABORATORIES FRANCE - C.R.L.F. sasu,Facture originale électronique à,ARBCOMPTACRF@crl.com,.,FR,003IV000010su8wYAA,003IV000010su8wYAA,006ci00000SqrS7AAJ
001IV000015S2SIYA0,012IV000001yk7WYAQ,Renewal,Backlog,EUR,true,false,30 days,Email,Transfer,ass.gestion@restonis.fr,Redevance 2026,false,,,RESTONIS sasu,,12 rue Jean Marie Poulmarch,IVRY SUR SEINE,94200,FR,RESTONIS sasu,Facture originale électronique à,ass.gestion@restonis.fr,.,FR,003IV000010t7NpYAI,003IV000010t7NpYAI,006ci00000SqrS8AAJ
001IV000015S8j2YAC,012IV000001yk7WYAQ,Renewal,Backlog,EUR,true,false,30 days,Email,Transfer,auby.comptafactures@nyrstar.com,Redevance 2026,false,,,NYRSTAR FRANCE sasu,,Rue Jean Jacques Rousseau,AUBY,59950,FR,NYRSTAR FRANCE sasu,Facture originale électronique à,auby.comptafactures@nyrstar.com,.,FR,003IV000010sqLNYAY,003IV000010sqLMYAY,006ci00000SqrS9AAJ
001IV000015S8jKYAS,012IV000001yk7WYAQ,Renewal,Backlog,EUR,true,false,60 days,Email,Transfer,automotive.compta@ineos.com,Redevance 2026,true,,2026-01-01,INEOS AUTOMOTIVE SAS,Service comptabilité,Europôle de Sarreguemines,HAMBACH,57913,FR,INEOS AUTOMOTIVE SAS,Facture originale électronique à,automotive.compta@ineos.com,.,FR,003IV000010tSrXYAU,003IV000010tSrXYAU,006ci00000SqrSAAAZ
001IV000015RewNYAS,012IV000001yk7WYAQ,Renewal,Backlog,EUR,true,false,30 days,Email,Transfer,bcouet@carea.fr,Redevance 2026,false,,,CAREA FACADE sasu,,ZA DE BEL AIR Bel-Air-de-Combrée - COMBREE,OMBREE D'ANJOU,49520,FR,CAREA FACADE sasu,Facture originale électronique à,bcouet@carea.fr,.,FR,003IV000010taO5YAI,003IV000010taO5YAI,006ci00000SqrSBAAZ
001IV000015S8j9YAC,012IV000001yk7WYAQ,Renewal,Backlog,EUR,true,false,30 days,Email,Transfer,beatrice.chretien@oterra.com,Redevance 2026,true,,2026-01-01,OTERRA FRANCE SAS,,Rue Ambroise Paré,COSSE-LE-VIVIEN,53230,FR,OTERRA FRANCE SAS,Facture originale électronique à,beatrice.chretien@oterra.com,.,FR,003IV000010tSkkYAE,003IV000010tSkkYAE,006ci00000SqrSCAAZ
001IV000015S6a7YAC,012IV000001yk7WYAQ,Renewal,Backlog,EUR,true,false,30 days,Email,Transfer,benoit.pinon@grouperioland.fr,Redevance 2026,false,,,GROUPE RIOLAND sas,,24 La Barre,BAUDRES,36110,FR,GROUPE RIOLAND sas,Facture originale électronique à,benoit.pinon@grouperioland.fr,.,FR,003IV000010sxFqYAI,003IV000010sxFqYAI,006ci00000SqrSDAAZ
001IV000015RyE5YAK,012IV000001yk7WYAQ,Renewal,Backlog,EUR,true,false,30 days,Email,Transfer,besma.ammari@dps-beaune.com,Redevance 2026,false,,,DPS BEAUNE sas,,156 Route de Dijon,BEAUNE,21200,FR,DPS BEAUNE sas,Facture originale électronique à,besma.ammari@dps-beaune.com,.,FR,003IV000010tJWHYA2,003IV000010tJWHYA2,006ci00000SqrSEAAZ
001IV000015S8ilYAC,012IV000001yk7WYAQ,Renewal,Backlog,EUR,true,false,30 days,Email,Direct Debit,bjumelart@sherpa-logistique.fr,Redevance 2026,false,,,SHERPA LOGISTIQUE sas,,ZI du Cappa,ST RAMBERT D'ALBON,26140,FR,SHERPA LOGISTIQUE sas,Facture originale électronique à,bjumelart@sherpa-logistique.fr,.,FR,003IV000010tSkOYAU,003IV000010tSkOYAU,006ci00000SqrSFAAZ
001IV000015S85zYAC,012IV000001yk7WYAQ,Renewal,Backlog,EUR,true,false,30 days,Email,Transfer,bon.nathalie@rotarex.com,Redevance 2026,false,,,SOCIETE DE MECANIQUE DES TILLES sas,,5 Rue de Labergement,GENLIS,21110,FR,SOCIETE DE MECANIQUE DES TILLES sas,Facture originale électronique à,bon.nathalie@rotarex.com,.,FR,003IV000010tIecYAE,003IV000010tIedYAE,006ci00000SqrSGAAZ
001IV000015S8imYAC,012IV000001yk7WYAQ,Renewal,Backlog,EUR,true,false,30 days,Email,Transfer,bonnefoy.achats@groupe-bonnefoy.fr,Redevance 2026,false,,,J.C. BONNEFOY sas,,ZI- 14 Rue de l'Industrie - BP28,SAONE,25660,FR,J.C. BONNEFOY sas,Facture originale électronique à,bonnefoy.achats@groupe-bonnefoy.fr,.,FR,003IV000010t2kBYAQ,003IV000010t2kBYAQ,006ci00000SqrSHAAZ
001IV000015S508YAC,012IV000001yk7WYAQ,Renewal,Backlog,EUR,true,false,30 days,Email,Transfer,bruno.gratas@viantmedical.com,Redevance 2026,false,,,VIANT CHAUMONT SAS,Finance,4 rue Renée et Louis Landanger,CHAUMONT,52000,FR,VIANT CHAUMONT SAS,Facture originale électronique à,bruno.gratas@viantmedical.com,.,FR,003IV000010tQHtYAM,003IV000010tQHtYAM,006ci00000SqrSIAAZ
001IV000015S50QYAS,012IV000001yk7WYAQ,Renewal,Backlog,EUR,true,false,30 days,Email,Transfer,bureau.formation@angdm.fr,Redevance 2026,false,,,AGENCE NATIONALE POUR LA GARANTIE DES DROITS DES MINEURS - ANGDM,CENTRE DE GESTION,110 Avenue de la fosse 23,NOYELLES SOUS LENS,62221,FR,AGENCE NATIONALE POUR LA GARANTIE DES DROITS DES MINEURS - ANGDM,Facture originale électronique à,bureau.formation@angdm.fr,.,FR,003IV000010tQITYA2,003IV000010tQITYA2,006ci00000SqrSJAAZ
001IV000015S8j0YAC,012IV000001yk7WYAQ,Renewal,Backlog,EUR,true,false,30 days,Email,Transfer,c.latil@socamel.com,Redevance 2026,false,,,SOCAMEL TECHNOLOGIES sas,,Descente Allivet,RENAGE,38140,FR,SOCAMEL TECHNOLOGIES sas,Facture originale électronique à,c.latil@socamel.com,.,FR,003IV000010tSkaYAE,003IV000010tSkaYAE,006ci00000SqrSKAAZ
001IV000015RzTjYAK,012IV000001yk7WYAQ,Renewal,Backlog,EUR,true,false,30 days,Email,Transfer,camille.meurin@kraftheinz.com,Redevance 2026,true,,2026-01-01,H.J. HEINZ FRANCE sasu,,18 Rue Marx Dormoy,SECLIN,59113,FR,H.J. HEINZ FRANCE sasu,Facture originale électronique à,camille.meurin@kraftheinz.com,.,FR,003IV000010t7tcYAA,003IV000010t7tcYAA,006ci00000SqrSLAAZ
001IV000015S86BYAS,012IV000001yk7WYAQ,Renewal,Backlog,EUR,true,false,30 days,Email,Transfer,camille.niquet@grandvision.fr,Redevance 2026,false,,,GRANDVISION FRANCE sasu,,Rue du Four à Chaux - ZA DES LOUAITIERES,NOUAN-LE-FUZELIER,41600,FR,GRANDVISION FRANCE sasu,Facture originale électronique à,camille.niquet@grandvision.fr,.,FR,003IV000010t1X4YAI,003IV000010t1X4YAI,006ci00000SqrSMAAZ
001IV000015S8ioYAC,012IV000001yk7WYAQ,Renewal,Backlog,EUR,true,false,30 days,Email,Transfer,carole.tardieu@mm.group,Redevance 2026,false,,,MMP PACKETIS SAS,,Treille,CHAZELLES,16380,FR,MMP PACKETIS SAS,Facture originale électronique à,carole.tardieu@mm.group,.,FR,003IV000010s6QzYAI,003IV000010s6QzYAI,006ci00000SqrSNAAZ
001IV000015S6ZvYAK,012IV000001yk7WYAQ,Renewal,Backlog,EUR,true,false,30 days,Email,Transfer,cbelmere@toyoink-europe.com,Redevance 2026,false,,,TOYO INK EUROPE SPECIALTY CHEMICALS sasu,,Boulevard Dambourney,OISSEL,76350,FR,TOYO INK EUROPE SPECIALTY CHEMICALS sasu,Facture originale électronique à,cbelmere@toyoink-europe.com,.,FR,003IV000010sxFfYAI,003IV000010sxFfYAI,006ci00000SqrSOAAZ
001IV000015S8nKYAS,012IV000001yk7WYAQ,Renewal,Backlog,EUR,true,false,30 days,Email,Direct Debit,ceap.invoices@moypark.com,Redevance 2026,false,,,MOY PARK FRANCE sas,,712 Chemin de Noyelles,HENIN-BEAUMONT,72110,FR,MOY PARK FRANCE sas,Facture originale électronique à,ceap.invoices@moypark.com,.,FR,003IV000010su9HYAQ,003IV000010su9HYAQ,006ci00000SqrSPAAZ
001IV000015SAFiYAO,012IV000001yk7WYAQ,Renewal,Backlog,EUR,true,false,30 days,Email,Transfer,cecile.geoffroy@bpmed.fr,Redevance 2026,false,,,BANQUE POPULAIRE MEDITERRANEE sa,,457 Promenade des Anglais - BP 241,NICE,6200,FR,BANQUE POPULAIRE MEDITERRANEE sa,Facture originale électronique à,cecile.geoffroy@bpmed.fr,.,FR,003IV000010rvHQYAY,003IV000010t2gOYAQ,006ci00000SqrSQAAZ
001IV000015S8ipYAC,012IV000001yk7WYAQ,Renewal,Backlog,EUR,true,false,30 days,Email,Transfer,cecile.pencole-lehaut@cebfc.caisse-epargne.fr,Redevance 2026,false,,,CAISSE D'EPARGNE ET DE PREVOYANCE DE BOURGOGNE FRANCHE-COMTE sa - CEBFC,,1 Rond Point de la Nation,DIJON,21000,FR,CAISSE D'EPARGNE ET DE PREVOYANCE DE BOURGOGNE FRANCHE-COMTE sa - CEBFC,Facture originale électronique à,cecile.pencole-lehaut@cebfc.caisse-epargne.fr,.,FR,003IV000010s6QxYAI,003IV000010s6QxYAI,006ci00000SqrSRAAZ
001IV000015SADqYAO,012IV000001yk7WYAQ,Renewal,Backlog,EUR,true,false,60 days,Email,Transfer,celine.champion@thuasne.fr,Redevance 2026,false,,,THUASNE sas,,27 Rue de la Jomayere,SAINT-ETIENNE Cedex 2,42100,FR,THUASNE sas,Facture originale électronique à,celine.champion@thuasne.fr,.,FR,003IV000010t4BKYAY,003IV000010t4BKYAY,006ci00000SqrSSAAZ
001IV000015S6a6YAC,012IV000001yk7WYAQ,Renewal,Backlog,EUR,true,false,30 days,Email,Transfer,celine.chevrel@fmgc.net,Redevance 2026,false,,,FONDERIE ET MECANIQUE GENERALE CASTELBRIANTAISE sa - FMGC,,ZI Hochepie,SOUDAN,44110,FR,FONDERIE ET MECANIQUE GENERALE CASTELBRIANTAISE sa - FMGC,Facture originale électronique à,celine.chevrel@fmgc.net,.,FR,003IV000010t2ZCYAY,003IV000010t2ZCYAY,006ci00000SqrSTAAZ
001IV000015SAHxYAO,012IV000001yk7WYAQ,Renewal,Backlog,EUR,true,false,30 days,Email,Transfer,cerutti@vernet.fr,Redevance 2026,false,,,VERNET sas,,21-27 route d'Arpajon,ARPAJON Cedex,91291,FR,VERNET sas,Facture originale électronique à,cerutti@vernet.fr,.,FR,003IV000010tPagYAE,003IV000010tPagYAE,006ci00000SqrSUAAZ
001IV000015S8jIYAS,012IV000001yk7WYAQ,Renewal,Backlog,EUR,true,false,30 days,Email,Transfer,cfournisseurs@dagard.com,Redevance 2026,false,,,DAGARD sas,,Route du Stade,BOUSSAC,23600,FR,DAGARD sas,Facture originale électronique à,cfournisseurs@dagard.com,.,FR,003IV000010tJaCYAU,003IV000010tJaCYAU,006ci00000SqrSVAAZ
001IV000015S85lYAC,012IV000001yk7WYAQ,Renewal,Backlog,EUR,true,false,45 days,Email,Transfer,cguichard@reinededijon.fr,Redevance 2026,false,,,REINE DE DIJON sas,,1 Rue des Combets,FLEUREY-SUR-OUCHE,21410,FR,REINE DE DIJON sas,Facture originale électronique à,cguichard@reinededijon.fr,.,FR,003IV000010tIe0YAE,003IV000010tIe0YAE,006ci00000SqrSWAAZ
001IV000015S2eEYAS,012IV000001yk7WYAQ,Renewal,Backlog,EUR,true,false,30 days,Email,Transfer,charline.leberrigaud@eureden.com,Redevance 2026,false,,,PEP sasu,,ZI de Camagnon,PLOERMEL,56800,FR,PEP sasu,Facture originale électronique à,charline.leberrigaud@eureden.com,.,FR,003IV000010t2zrYAA,003IV000010tRW1YAM,006ci00000SqrSXAAZ
001IV000015S8jEYAS,012IV000001yk7WYAQ,Renewal,Backlog,EUR,true,false,45 days,Email,Transfer,charlotte.maillard@texelis.com,Redevance 2026,false,,,TEXELIS sasu,,72 Route du Palais,LIMOGES CEDEX 1,87011,FR,TEXELIS sasu,Facture originale électronique à,charlotte.maillard@texelis.com,.,FR,003IV000010t3skYAA,003IV000010t3skYAA,006ci00000SqrSYAAZ
001IV000015RewKYAS,012IV000001yk7WYAQ,Renewal,Backlog,EUR,true,false,30 days,Email,Transfer,chenove.comptabilite@cordenpharma.com,Redevance 2026,false,,,CORDEN PHARMA CHENOVE sasu,,47 rue de Longvic,CHENOVE,21300,FR,CORDEN PHARMA CHENOVE sasu,Facture originale électronique à,chenove.comptabilite@cordenpharma.com,.,FR,003IV000010tIiQYAU,003IV000010tIiQYAU,006ci00000SqrSZAAZ
001IV000015S2e8YAC,012IV000001yk7WYAQ,Renewal,Backlog,EUR,true,false,30 days,Email,Transfer,chm@reynaers.com,Redevance 2026,false,,,REYNAERS ALUMINIUM sasu,,Route de Brouchy,HAM,80400,FR,REYNAERS ALUMINIUM sasu,Facture originale électronique à,chm@reynaers.com,.,FR,003IV000010tRVRYA2,003IV000010t2QNYAY,006ci00000SqrSaAAJ
001IV000015S2eZYAS,012IV000001yk7WYAQ,Renewal,Backlog,EUR,true,false,30 days,Email,Transfer,christophe.renoncial@eurial.eu,Redevance 2026,false,,,EURIAL ULTRA FRAIS sasu,,Avenue des Saulniers,CHATEAU SALINS,57170,FR,EURIAL ULTRA FRAIS sasu,Facture originale électronique à,christophe.renoncial@eurial.eu,.,FR,003IV000010tJZVYA2,003IV000010tJZVYA2,006ci00000SqrSbAAJ
001IV000015S2SRYA0,012IV000001yk7WYAQ,Renewal,Backlog,EUR,true,false,30 days,Email,Transfer,clanotte@guerlain.fr,Redevance 2026,false,,,GUERLAIN sas,,4 Avenue Gustave Eiffel,CHARTRES,28000,FR,GUERLAIN sas,Facture originale électronique à,clanotte@guerlain.fr,.,FR,003IV000010t6MdYAI,003IV000010rv3gYAA,006ci00000SqrScAAJ
001IV000015S85uYAC,012IV000001yk7WYAQ,Renewal,Backlog,EUR,true,false,30 days,Email,Transfer,compta.bourgoin@faiveley.fr,Redevance 2026,false,,,FAIVELEY TECH BOURGOIN sasu,,107 allée de Chardillonnay -  Maubec - CS 51001,BOURGOIN JALLIEU,38307,FR,FAIVELEY TECH BOURGOIN sasu,Facture originale électronique à,compta.bourgoin@faiveley.fr,.,FR,003IV000010tIdvYAE,003IV000010tIdvYAE,006ci00000SqrSdAAJ
001IV000015S85wYAC,012IV000001yk7WYAQ,Renewal,Backlog,EUR,true,false,45 days,Email,Transfer,compta.factures.fournisseurs@flowbird.group,Redevance 2026,false,,,FLOWBIRD sasu,,6 Rue Isaac Newton,BESANCON,25000,FR,FLOWBIRD sasu,Facture originale électronique à,compta.factures.fournisseurs@flowbird.group,.,FR,003IV000010su90YAA,003IV000010su90YAA,006ci00000SqrSeAAJ
001IV000015S2eMYAS,012IV000001yk7WYAQ,Renewal,Backlog,EUR,true,false,30 days,Email,Transfer,compta.fournisseur@euroden.com,Redevance 2026,false,,,AUBRET sasu,,ZI BP12 - Saint- Mars La Jaille,VALLONS-DE-L'ERDRE,44540,FR,AUBRET sasu,Facture originale électronique à,compta.fournisseur@euroden.com,.,FR,003IV000010su8nYAA,003IV000010su8nYAA,006ci00000SqrSfAAJ
001IV000015SAFfYAO,012IV000001yk7WYAQ,Renewal,Backlog,EUR,true,false,30 days,Email,Transfer,compta.fournisseur@larnaudie.com,Redevance 2026,false,,,JEAN LARNAUDIE snc,,76 rue des Artisans,FIGEAC,46100,FR,JEAN LARNAUDIE snc,Facture originale électronique à,compta.fournisseur@larnaudie.com,.,FR,003IV000010tIe9YAE,003IV000010tIe9YAE,006ci00000SqrSgAAJ
001IV000015S6a4YAC,012IV000001yk7WYAQ,Renewal,Backlog,EUR,true,false,30 days,Email,Transfer,compta.fournisseurs@carbody.eu,Redevance 2026,false,,,CARBODY sas,,17 rue du moulin Florent,WITRY LES REIMS,51420,FR,CARBODY sas,Facture originale électronique à,compta.fournisseurs@carbody.eu,.,FR,003IV000010sxGSYAY,003IV000010sxGQYAY,006ci00000SqrShAAJ
001IV000015S86DYAS,012IV000001yk7WYAQ,Renewal,Backlog,EUR,true,false,30 days,Email,Transfer,compta.fournisseurs@mdsfrance.fr,Redevance 2026,false,,,MDS sa,,22 Rue Robert Benoist,DOURDAN,91410,FR,MDS sa,Facture originale électronique à,compta.fournisseurs@mdsfrance.fr,.,FR,003IV000010su9RYAQ,003IV000010su9RYAQ,006ci00000SqrSiAAJ
001IV000015RzTeYAK,012IV000001yk7WYAQ,Renewal,Backlog,EUR,true,false,30 days,Email,Transfer,compta.fournisseurs@souchier-boullet.com,Redevance 2026,false,,,SOUCHIER - BOULLET sas,,11 Rue du 47ème Régiment d'Artillerie,HERICOURT,70400,FR,SOUCHIER - BOULLET sas,Facture originale électronique à,compta.fournisseurs@souchier-boullet.com,.,FR,003IV000010tPaLYAU,003IV000010tPaLYAU,006ci00000SqrSjAAJ
001IV000015S2eUYAS,012IV000001yk7WYAQ,Renewal,Backlog,EUR,true,false,30 days,Email,Transfer,compta.fournisseurs@weser.fr,Redevance 2026,false,,,WESER sas,,1 Route de Cléré,MAZIERES DE TOURAINE,37130,FR,WESER sas,Facture originale électronique à,compta.fournisseurs@weser.fr,.,FR,003IV000010tIe4YAE,003IV000010tIe4YAE,006ci00000SqrSkAAJ
001IV000015S8irYAC,012IV000001yk7WYAQ,Renewal,Backlog,EUR,true,false,30 days,Email,Transfer,compta.groupe@plastivaloire.com,Redevance 2026,false,,,PLASTIQUES DU VAL DE LOIRE sa,Comptabilité & ressources Humaines,1 route de la Retaudière - E.I. Nord - BP 38,LANGEAIS,37130,FR,PLASTIQUES DU VAL DE LOIRE sa,Facture originale électronique à,compta.groupe@plastivaloire.com,.,FR,003IV000010tJXjYAM,003IV000010tJXjYAM,006ci00000SqrSlAAJ
001IV000015S2eFYAS,012IV000001yk7WYAQ,Renewal,Backlog,EUR,true,false,30 days,Email,Transfer,compta.saem@engie.com,Redevance 2026,false,,,SAEM sas,SAEM ENERGIES,2 Boulevard Jean Lafaure,CUSSET,3300,FR,SAEM sas,Facture originale électronique à,compta.saem@engie.com,.,FR,003IV000010tRW6YAM,003IV000010tRW6YAM,006ci00000SqrSmAAJ
001IV000015S2eNYAS,012IV000001yk7WYAQ,Renewal,Backlog,EUR,true,false,30 days,Email,Transfer,compta@afebakery.fr,Redevance 2026,false,,,BONGARD sas,Comptabilité,32 route de Wolfisheim,HOLTZHEIM,67810,FR,BONGARD sas,Facture originale électronique à,compta@afebakery.fr,.,FR,003IV000010tIeYYAU,003IV000010tTt4YAE,006ci00000SqrSnAAJ
001IV000015SAHmYAO,012IV000001yk7WYAQ,Renewal,Backlog,EUR,true,false,30 days,Email,Transfer,compta@atelier36.fr,Redevance 2026,false,,,SAMB sasu,,18 Allée Gaspard Monge -   ZI des Daubourgs,LE BLANC,36300,FR,SAMB sasu,Facture originale électronique à,compta@atelier36.fr,.,FR,003IV000010su8xYAA,003IV000010su8xYAA,006ci00000SqrSoAAJ
001IV000015S8ifYAC,012IV000001yk7WYAQ,Renewal,Backlog,EUR,true,false,30 days,Email,Transfer,compta@charles-perroud.com,Redevance 2026,false,,,CHARLES PERROUD sas,,173 route de Chapernay,LENTILLY,69210,FR,CHARLES PERROUD sas,Facture originale électronique à,compta@charles-perroud.com,.,FR,003IV000010t2foYAA,003IV000010t2foYAA,006ci00000SqrSpAAJ
001IV000015RyE2YAK,012IV000001yk7WYAQ,Renewal,Backlog,EUR,true,false,30 days,Email,Transfer,compta@electropoli.com,Redevance 2026,false,,,ELECTROPOLI FRANCE sarl,Service Comptabilité,Le Grand Chemin,ISIGNY LE BUAT,50540,FR,ELECTROPOLI FRANCE sarl,Facture originale électronique à,compta@electropoli.com,.,FR,003IV000010tJWDYA2,003IV000010tJWDYA2,006ci00000SqrSqAAJ
001IV000015RzTXYA0,012IV000001yk7WYAQ,Renewal,Backlog,EUR,true,false,30 days,Email,Transfer,compta@fr.urgo.com,Redevance 2026,true,,2026-01-01,LABORATOIRES URGO sasu,Comptabilité Fournisseurs,42 rue de Longvic,CHENOVE,21300,FR,LABORATOIRES URGO sasu,Facture originale électronique à,compta@fr.urgo.com,.,FR,003IV000010tJXYYA2,003IV000010tJXYYA2,006ci00000SqrSrAAJ
001IV000015RyDpYAK,012IV000001yk7WYAQ,Renewal,Backlog,EUR,true,false,30 days,Email,Transfer,compta@herbarom-laboratoire.com,Redevance 2026,false,,,HERBAROM LABORATOIRE sas,RH,31 Avenue de Lautagne,VALENCE,26000,FR,HERBAROM LABORATOIRE sas,Facture originale électronique à,compta@herbarom-laboratoire.com,.,FR,003IV000010tI5MYAU,003IV000010tI5MYAU,006ci00000SqrSsAAJ
001IV000015S864YAC,012IV000001yk7WYAQ,Renewal,Backlog,EUR,true,false,30 days,Email,Transfer,compta@jousseau.com,Redevance 2026,false,,,SAS JOUSSEAU,,32 rue du 19 mars 1962,VIRE,71260,FR,SAS JOUSSEAU,Facture originale électronique à,compta@jousseau.com,.,FR,003IV000010tIepYAE,003IV000010tLcYYAU,006ci00000SqrStAAJ
001IV000015S6ZyYAK,012IV000001yk7WYAQ,Renewal,Backlog,EUR,true,false,30 days,Email,Transfer,compta@pdg-plastiques.com,Redevance 2026,false,,,PDG PLASTIQUES sas,Baptiste VILLEVALOIS,31 Route de Sermaises - ZI Secteur 2,MALESHERBES,45330,FR,PDG PLASTIQUES sas,Facture originale électronique à,compta@pdg-plastiques.com,.,FR,003IV000010sxFhYAI,003IV000010t2BIYAY,006ci00000SqrSuAAJ
001IV000015RewCYAS,012IV000001yk7WYAQ,Renewal,Backlog,EUR,true,false,30 days,Email,Transfer,compta@romaire-sa.fr,Redevance 2026,false,,,ETABLISSEMENTS ROMAIRE sasu,,1032 Avenue de Joux,ARNAS,69400,FR,ETABLISSEMENTS ROMAIRE sasu,Facture originale électronique à,compta@romaire-sa.fr,.,FR,003IV000010tWSNYA2,003IV000010tWSNYA2,006ci00000SqrSvAAJ
001IV000015RhU7YAK,012IV000001yk7WYAQ,Renewal,Backlog,EUR,true,false,30 days,Email,Transfer,compta@roval.fr,Redevance 2026,false,,,ROVAL sas,,Rue des Sports,FLERS,61100,FR,ROVAL sas,Facture originale électronique à,compta@roval.fr,.,FR,003IV000010tQICYA2,003IV000010tWSzYAM,006ci00000SqrSwAAJ
001IV000015SJKeYAO,012IV000001yk7WYAQ,Renewal,Backlog,EUR,true,false,30 days,Email,Transfer,compta@samibois.com,Redevance 2026,false,,,SAMIBOIS sasu,,Pôle Technique Odyssée -   6 rue Denis Papin,COËX,85220,FR,SAMIBOIS sasu,Facture originale électronique à,compta@samibois.com,.,FR,003IV000010t2ZQYAY,003IV000010t2ZQYAY,006ci00000SqrSxAAJ
001IV000015S4lJYAS,012IV000001yk7WYAQ,Renewal,Backlog,EUR,true,false,30 days,Email,Transfer,compta@samiplast.fr,Redevance 2026,false,,,SAMIPLAST sasu,Service Comptabilité,Route de Saint Julien des Landes,LA CHAIZE GIRAUD,85220,FR,SAMIPLAST sasu,Facture originale électronique à,compta@samiplast.fr,.,FR,003IV000010t2ZRYAY,003IV000010t2ZRYAY,006ci00000SqrSyAAJ
001IV000015RyDkYAK,012IV000001yk7WYAQ,Renewal,Backlog,EUR,true,false,30 days,Email,Transfer,compta@secmair.fayat.com,Redevance 2026,false,,,SECMAIR sas,Service Comptabilité,Rue des Frères Lumières,COSSE LE VIVIEN,53203,FR,SECMAIR sas,Facture originale électronique à,compta@secmair.fayat.com,.,FR,003IV000010tJXaYAM,003IV000010tI5IYAU,006ci00000SqrSzAAJ
001IV000015SAFgYAO,012IV000001yk7WYAQ,Renewal,Backlog,EUR,true,false,30 days,Email,Transfer,compta@sodel-sa.eu,Redevance 2026,false,,,SODEL sas,,190 rue René Barthelemy,LISIEUX,14100,FR,SODEL sas,Facture originale électronique à,compta@sodel-sa.eu,.,FR,003IV000010rvHLYAY,003IV000010rvHLYAY,006ci00000SqrT0AAJ
001IV000015S2eHYAS,012IV000001yk7WYAQ,Renewal,Backlog,EUR,true,false,30 days,Email,Transfer,compta@sopronem.com,Redevance 2026,false,,,"SOCIETE DE PRODUCTION DE NEMOURS ""SOPRONEM"" sasu",,2 Rue des Etangs,SAINT-PIERRE-LES-NEMOURS,77140,FR,"SOCIETE DE PRODUCTION DE NEMOURS ""SOPRONEM"" sasu",Facture originale électronique à,compta@sopronem.com,.,FR,003IV000010tRW7YAM,003IV000010tRW7YAM,006ci00000SqrT1AAJ
001IV000015S85tYAC,012IV000001yk7WYAQ,Renewal,Backlog,EUR,true,false,30 days,Email,Transfer,compta_fournisseur@metauxspeciaux.fr,Redevance 2026,false,,,MSSA sasu,,111 rue de la Volta Pomblière,SAINT MARCEL,73600,FR,MSSA sasu,Facture originale électronique à,compta_fournisseur@metauxspeciaux.fr,.,FR,003IV000010tIeLYAU,003IV000010tIeLYAU,006ci00000SqrT2AAJ
001IV000015SAHRYA4,012IV000001yk7WYAQ,Renewal,Backlog,EUR,true,false,30 days,Email,Transfer,compta_fraisgeneraux@cofidis-group.com,Redevance 2026,false,,,SYNERGIE Geie,Service comptabilité fournisseurs,Parc de la Haute Borne 61 avenue Halley,VILLENEUVE D'ASCQ,59650,FR,SYNERGIE Geie,Facture originale électronique à,compta_fraisgeneraux@cofidis-group.com,.,FR,003IV000010rvHBYAY,003IV000010rvHBYAY,006ci00000SqrT3AAJ
001IV000015S85iYAC,012IV000001yk7WYAQ,Renewal,Backlog,EUR,true,false,30 days,Email,Transfer,compta-achats@groupe-papin.fr,Redevance 2026,false,,,PAPIN MANAGEMENT sas,,ZI rue du Stade,SAINT-FULGENT,85250,FR,PAPIN MANAGEMENT sas,Facture originale électronique à,compta-achats@groupe-papin.fr,.,FR,003IV000010tRWmYAM,003IV000010tRWmYAM,006ci00000SqrT4AAJ
001IV000015S9GIYA0,012IV000001yk7WYAQ,Renewal,Backlog,EUR,true,false,30 days,Email,Transfer,comptabilite.fournisseurs.vf@verallia.com,Redevance 2026,false,,,VERALLIA FRANCE sas,,31 Place des Corolles,COURBEVOIE,92400,FR,VERALLIA FRANCE sas,Facture originale électronique à,comptabilite.fournisseurs.vf@verallia.com,.,FR,003IV000010t9wmYAA,003IV000010t9wmYAA,006ci00000SqrT5AAJ
001IV000015S4lDYAS,012IV000001yk7WYAQ,Renewal,Backlog,EUR,true,false,30 days,Email,Transfer,comptabilite.fournisseurs@europesnacks.com,Redevance 2026,false,,,FRANDEX sas,,ZI Saint Denis les Lucs,SAINT DENIS LA CHEVASSE,85170,FR,FRANDEX sas,Facture originale électronique à,comptabilite.fournisseurs@europesnacks.com,.,FR,003IV000010tRzGYAU,003IV000010su87YAA,006ci00000SqrT6AAJ
001IV000015S865YAC,012IV000001yk7WYAQ,Renewal,Backlog,EUR,true,false,30 days,Email,Transfer,comptabilite.fournisseurs@sigvaris.com,Redevance 2026,true,,2026-01-01,SIGVARIS sasu,,ZI Sud d'Andrézieux -   Rue Barthélémy Thimonnier,SAINT-JUST-SAINT-RAMBERT,42170,FR,SIGVARIS sasu,Facture originale électronique à,comptabilite.fournisseurs@sigvaris.com,.,FR,003IV000010su9BYAQ,003IV000010su9BYAQ,006ci00000SrNO9AAN
001IV000015S8jHYAS,012IV000001yk7WYAQ,Renewal,Backlog,EUR,true,false,60 days,Email,Transfer,comptabilite.fournisseurs@somfy.com,Redevance 2026,true,,2026-01-01,SOMFY ACTIVITES SA,,50 Avenue du Nouveau Monde,CLUSES,74300,FR,SOMFY ACTIVITES SA,Facture originale électronique à,comptabilite.fournisseurs@somfy.com,.,FR,003IV000010tJZYYA2,003IV000010tJZYYA2,006ci00000SrNOAAA3
001IV000015S869YAC,012IV000001yk7WYAQ,Renewal,Backlog,EUR,true,false,45 days,Email,Transfer,comptabilite.fr@lennoxemea.com,Redevance 2026,true,,2026-01-01,LFB FRANCE sas,,Rue des Albatros -   ZI Les Meurières,MIONS,69780,FR,LFB FRANCE sas,Facture originale électronique à,comptabilite.fr@lennoxemea.com,.,FR,003IV000010su8XYAQ,003IV000010su8XYAQ,006ci00000SrNOBAA3
001IV000015RyDoYAK,012IV000001yk7WYAQ,Renewal,Backlog,EUR,true,false,30 days,Email,Transfer,comptabilite@fr.mw.gruppocln.com,Redevance 2026,false,,,MW FRANCE sas,Comptabilité,33 Boulevard du 32ème R.I. -   ZI les Certels,TERGNIER,2700,FR,MW FRANCE sas,Facture originale électronique à,comptabilite@fr.mw.gruppocln.com,.,FR,003IV000010tJXZYA2,003IV000010tJXZYA2,006ci00000SrNOCAA3
001IV000015RyDrYAK,012IV000001yk7WYAQ,Renewal,Backlog,EUR,true,false,30 days,Email,Transfer,comptabilite@saint-jean.fr,Redevance 2026,false,,,SAINT JEAN sas,,44 Avenue des Allobroges,ROMANS-SUR-ISERE,26100,FR,SAINT JEAN sas,Facture originale électronique à,comptabilite@saint-jean.fr,.,FR,003IV000010su8PYAQ,003IV000010su8PYAQ,006ci00000SrNODAA3
001IV000015S860YAC,012IV000001yk7WYAQ,Renewal,Backlog,EUR,true,false,30 days,Email,Transfer,comptabilite@sateba.com,Redevance 2026,false,,,SATEBA FRANCE s.a.,,Tour CB21 - 16 Place de l'Iris,PARIS LA DEFENSE CEDEX,92040,FR,SATEBA FRANCE s.a.,Facture originale électronique à,comptabilite@sateba.com,.,FR,003IV000010tIekYAE,003IV000010tIekYAE,006ci00000SrNOEAA3
001IV000015S8jGYAS,012IV000001yk7WYAQ,Renewal,Backlog,EUR,true,false,30 days,Email,Transfer,comptabilite63@hexcel.com,Redevance 2026,false,,,HEXCEL FIBERS sasu,,Rue Gaston Monmousseau -   ROUSSILLON - CS 50032,SAINT-MAURICE-L'EXIL,38556,FR,HEXCEL FIBERS sasu,Facture originale électronique à,comptabilite63@hexcel.com,.,FR,003IV000010tJZRYA2,003IV000010tJZRYA2,006ci00000SrNOFAA3
001IV000015RewMYAS,012IV000001yk7WYAQ,Renewal,Backlog,EUR,true,false,30 days,Email,Transfer,comptabilite-fournisseur@blanchon.com,Redevance 2026,false,,,BLANCHON sas,,50 8ème Rue - Cité Berliet,SAINT PRIEST,69800,FR,BLANCHON sas,Facture originale électronique à,comptabilite-fournisseur@blanchon.com,.,FR,003IV000010tQI7YAM,003IV000010tQI7YAM,006ci00000SrNOGAA3
001IV000015Rew8YAC,012IV000001yk7WYAQ,Renewal,Backlog,EUR,true,false,30 days,Email,Transfer,comptabilitefournisseurs@doka.com,Redevance 2026,false,,,DOKA FRANCE sasu,,3 chemin des Iles,LE PERRAY EN YVELINES,78610,FR,DOKA FRANCE sasu,Facture originale électronique à,comptabilitefournisseurs@doka.com,.,FR,003IV000010tRTvYAM,003IV000010tRTUYA2,006ci00000SrNOHAA3
001IV000015S2SVYA0,012IV000001yk7WYAQ,Renewal,Backlog,EUR,true,false,30 days,Email,Transfer,comptabilite-fournisseurs@groupediffusionplus.fr,Redevance 2026,false,,,GROUPE DIFFUSION PLUS sas,,22 Rue des Ombres,NORMANVILLE,27930,FR,GROUPE DIFFUSION PLUS sas,Facture originale électronique à,comptabilite-fournisseurs@groupediffusionplus.fr,.,FR,003IV000010su8lYAA,003IV000010su8lYAA,006ci00000SrNOIAA3
001IV000015RewGYAS,012IV000001yk7WYAQ,Renewal,Backlog,EUR,true,false,30 days,Email,Transfer,comptabilite-wasselonne@hansgrohe.fr,Redevance 2026,false,,,HANSGROHE WASSELONNE sas,,"Parc d'Activités ""les Pins""",WASSELONNE CEDEX,67319,FR,HANSGROHE WASSELONNE sas,Facture originale électronique à,comptabilite-wasselonne@hansgrohe.fr,.,FR,003IV000010tRViYAM,003IV000010tL9NYAU,006ci00000SrNOJAA3
001IV000015S8iqYAC,012IV000001yk7WYAQ,Renewal,Backlog,EUR,true,false,30 days,Email,Transfer,compta-finance@oreco.fr,Redevance 2026,false,,,ORGANISATION ECONOMIQUE DU COGNAC sa - ORECO,,44 Boulevard Oscar Planat,COGNAC,16100,FR,ORGANISATION ECONOMIQUE DU COGNAC sa - ORECO,Facture originale électronique à,compta-finance@oreco.fr,.,FR,003IV000010s6QyYAI,003IV000010s6QyYAI,006ci00000SrNOKAA3
001IV000015SAHTYA4,012IV000001yk7WYAQ,Renewal,Backlog,EUR,true,false,45 days,Email,Transfer,comptafour.siege@euralis.com,Redevance 2026,false,,,EURALIS HOLDING sa,,Avenue Gaston Phoebus,LESCAR,64230,FR,EURALIS HOLDING sa,Facture originale électronique à,comptafour.siege@euralis.com,.,FR,003IV000010su8yYAA,003IV000010tTxvYAE,006ci00000SrNOLAA3
001IV000015RyDlYAK,012IV000001yk7WYAQ,Renewal,Backlog,EUR,true,false,30 days,Email,Transfer,compta-fournisseurs.fr@puma.com,Redevance 2026,false,,,PUMA FRANCE SAS,,4A Place Adrien Zeller,STRASBOURG,67000,FR,PUMA FRANCE SAS,Facture originale électronique à,compta-fournisseurs.fr@puma.com,.,FR,003IV000010su8LYAQ,003IV000010su8LYAQ,006ci00000SrNOMAA3
001IV000015S2eQYAS,012IV000001yk7WYAQ,Renewal,Backlog,EUR,true,false,30 days,Email,Transfer,compta-fournisseurs@chabanne.com,Redevance 2026,false,,,CHABANNE sas,,La Grange - Route de Rivas,CHAMBOEUF,42330,FR,CHABANNE sas,Facture originale électronique à,compta-fournisseurs@chabanne.com,.,FR,003IV000010tWSKYA2,003IV000010tWSLYA2,006ci00000SrNONAA3
001IV000015S8j5YAC,012IV000001yk7WYAQ,Renewal,Backlog,EUR,true,false,30 days,Email,Transfer,comptafournisseurs@rolot.com,Redevance 2026,false,,,ETABLISSEMENTS ROLOT ET LEMASSON sasu,,156 Route de Dijon,BEAUNE,21200,FR,ETABLISSEMENTS ROLOT ET LEMASSON sasu,Facture originale électronique à,comptafournisseurs@rolot.com,.,FR,003IV000010tSnSYAU,003IV000010tSnSYAU,006ci00000SrNOOAA3
001IV000015S50HYAS,012IV000001yk7WYAQ,Renewal,Backlog,EUR,true,false,30 days,Email,Transfer,compta-frais2@monin.com,Redevance 2026,false,,,GEORGES MONIN SAS,,5 rue Ferdinand de Lesseps,BOURGES,18000,FR,GEORGES MONIN SAS,Facture originale électronique à,compta-frais2@monin.com,.,FR,003IV000010t3eLYAQ,003IV000010t3eLYAQ,006ci00000SrNOPAA3
001IV000015S8ijYAC,012IV000001yk7WYAQ,Renewal,Backlog,EUR,true,false,30 days,Email,Transfer,comptafrs@pileje-industrie.com,Redevance 2026,false,,,PILEJE INDUSTRIE sas,Comptabilité Fournisseurs,Les chemins des Ttiolans,SAINT BONNET DE ROCHEFORT,3800,FR,PILEJE INDUSTRIE sas,Facture originale électronique à,comptafrs@pileje-industrie.com,.,FR,003IV000010tSkMYAU,003IV000010s6QXYAY,006ci00000SrNOQAA3
001IV000015RzTOYA0,012IV000001yk7WYAQ,Renewal,Backlog,EUR,true,false,45 days,Email,Transfer,comptagenerale@cofigeo.fr,Redevance 2026,false,,,COFIGEO sas,,2 Rue du Docteur Lombard,ISSY-LES-MOULINEAUX,92130,FR,COFIGEO sas,Facture originale électronique à,comptagenerale@cofigeo.fr,.,FR,003IV000010tJZsYAM,003IV000010tJZsYAM,006ci00000SrNORAA3
001IV000015S50MYAS,012IV000001yk7WYAQ,Renewal,Backlog,EUR,true,false,30 days,Email,Transfer,comptamob-frs@lafuma-mobilier.fr,Redevance 2026,false,,,LAFUMA MOBILIER S.A.S,,6 rue Victoria Lafuma,ANNEYRON,26140,FR,LAFUMA MOBILIER S.A.S,Facture originale électronique à,comptamob-frs@lafuma-mobilier.fr,.,FR,003IV000010tQIIYA2,003IV000010tQIIYA2,006ci00000SrNOSAA3
001IV000015SAGoYAO,012IV000001yk7WYAQ,Renewal,Backlog,EUR,true,false,45 days,Email,Transfer,compta-tiers.efi@efiautomotive.com,Redevance 2026,true,,2026-01-01,ELECTRIFIL AUTOMOTIVE sas,,ZI Ouest Beynost -  77 allée des Grandes Combes,MIRIBEL CEDEX,1708,FR,ELECTRIFIL AUTOMOTIVE sas,Facture originale électronique à,compta-tiers.efi@efiautomotive.com,.,FR,003IV000010tJa8YAE,003IV000010tJa8YAE,006ci00000SrNOTAA3
001IV000015S6a5YAC,012IV000001yk7WYAQ,Renewal,Backlog,EUR,true,false,45 days,Email,Transfer,coralie.rouye@verallia.com,Redevance 2026,false,,,SOCIETE CHARENTAISE DE DECOR sasu,,1 route des Grands Champs,GENSAC LA PALLUE,16130,FR,SOCIETE CHARENTAISE DE DECOR sasu,Facture originale électronique à,coralie.rouye@verallia.com,.,FR,003IV000010sxGpYAI,003IV000010sxGJYAY,006ci00000SrNOUAA3
001IV000015RyL3YAK,012IV000001yk7WYAQ,Renewal,Backlog,EUR,true,false,30 days,Email,Transfer,corinne.ponton@sodis.fr,Redevance 2026,false,,,SOCIETE DE DISTRIBUTION DE PRODUITS DE L'EDITION sas,Ressources Humaines,128 Avenue du Maréchal de Lattre de Tassigny,LAGNY-SUR-MARNE,77400,FR,SOCIETE DE DISTRIBUTION DE PRODUITS DE L'EDITION sas,Facture originale électronique à,corinne.ponton@sodis.fr,.,FR,003IV000010tKf9YAE,003IV000010su98YAA,006ci00000SrNOVAA3
001IV000015S50FYAS,012IV000001yk7WYAQ,Renewal,Backlog,EUR,true,false,30 days,Email,Transfer,cosasaccountspayable@chevron.com,Redevance 2026,false,,,CHEVRON ORONITE sasu,Usine de Gonfreville l'Orcher,Route du Pont 8,LE HAVRE,76600,FR,CHEVRON ORONITE sasu,Facture originale électronique à,cosasaccountspayable@chevron.com,.,FR,003IV000010tJXdYAM,003IV000010tJXdYAM,006ci00000SrNOWAA3
001IV000015S85mYAC,012IV000001yk7WYAQ,Renewal,Backlog,EUR,true,false,30 days,Email,Transfer,cphilibert@caillau.com,Redevance 2026,false,,,CAILLAU sas,Direction des Ressources Humaines,1 Avenue Gustave Eiffel,ROMORANTIN-LANTHENAY,41200,FR,CAILLAU sas,Facture originale électronique à,cphilibert@caillau.com,.,FR,003IV000010tIeBYAU,003IV000010tIeBYAU,006ci00000SrNOXAA3
001IV000015S2SWYA0,012IV000001yk7WYAQ,Renewal,Backlog,EUR,true,false,30 days,Email,Transfer,csp-fournisseurs@groupeavril.com,Redevance 2026,true,,2026-01-01,AVRIL sca,,11 rue de Monceau,PARIS,75008,FR,AVRIL sca,Facture originale électronique à,csp-fournisseurs@groupeavril.com,.,FR,003IV000010su9LYAQ,003IV000010su9LYAQ,006ci00000SrNOYAA3
001IV000015SAHPYA4,012IV000001yk7WYAQ,Renewal,Backlog,EUR,true,false,30 days,Email,Transfer,cspli.lagrange@lapeyre.fr,Redevance 2026,false,,,LAGRANGE PRODUCTION sasu,,2 route de Montauban,LA MAGDELAINE SUR TARN,31340,FR,LAGRANGE PRODUCTION sasu,Facture originale électronique à,cspli.lagrange@lapeyre.fr,.,FR,003IV000010t2AqYAI,003IV000010t2AqYAI,006ci00000SrNOZAA3
001IV000015S50GYAS,012IV000001yk7WYAQ,Renewal,Backlog,EUR,true,false,30 days,Email,Transfer,dany.incardona@cummins.com,Redevance 2026,false,,,MERITOR INDUSTRIAL PRODUCTS SAINT-ETIENNE sasu,,4 rue Jean Servanton,SAINT-ETIENNE,42000,FR,MERITOR INDUSTRIAL PRODUCTS SAINT-ETIENNE sasu,Facture originale électronique à,dany.incardona@cummins.com,.,FR,003IV000010tQHfYAM,003IV000010tQHfYAM,006ci00000SrNOaAAN
001IV000015S50AYAS,012IV000001yk7WYAQ,Renewal,Backlog,EUR,true,false,30 days,Email,Transfer,delphine.bannier@snapon.com,Redevance 2026,false,,,SECATEURS PRADINES sasu,,1 rue Roger Deville,BAUGE EN ANJOU,49150,FR,SECATEURS PRADINES sasu,Facture originale électronique à,delphine.bannier@snapon.com,.,FR,003IV000010tQHuYAM,003IV000010tQHuYAM,006ci00000SrNObAAN
001IV000015S866YAC,012IV000001yk7WYAQ,Renewal,Backlog,EUR,true,false,30 days,Email,Transfer,demat@posson.fr,Redevance 2026,false,,,POSSON PACKAGING sasu,,134 Rue d'Italie,LOUAILLES,72300,FR,POSSON PACKAGING sasu,Facture originale électronique à,demat@posson.fr,.,FR,003IV000010tIdQYAU,003IV000010tIdQYAU,006ci00000SrNOcAAN
001IV000015SAHyYAO,012IV000001yk7WYAQ,Renewal,Backlog,EUR,true,false,30 days,Email,Transfer,denise.m.feder@corteva.com,Redevance 2026,false,,,CORTEVA AGRISCIENCE FRANCE SAS,,1 bis Avenue du 8 Mai 1945,GUYANCOURT,78280,FR,CORTEVA AGRISCIENCE FRANCE SAS,Facture originale électronique à,denise.m.feder@corteva.com,.,FR,003IV000010tTsjYAE,003IV000010tTsjYAE,006ci00000SrNOdAAN
001IV000015S8j4YAC,012IV000001yk7WYAQ,Renewal,Backlog,EUR,true,false,30 days,Email,Transfer,dianasas.accounting@symrise.com,Redevance 2026,false,,,DIANA sasu,,10 Rue de la Ferme de Talhouet,SAINT NOLFF,56250,FR,DIANA sasu,Facture originale électronique à,dianasas.accounting@symrise.com,.,FR,003IV000010su8TYAQ,003IV000010su8TYAQ,006ci00000SrNOeAAN
001IV000015S8jBYAS,012IV000001yk7WYAQ,Renewal,Backlog,EUR,true,false,30 days,Email,Transfer,e.supplierinvoice@torayfilms.eu,Redevance 2026,true,,2026-01-01,TORAY FILMS EUROPE sasu,,Place d’Arménie,SAINT-MAURICE-DE-BEYNOST,1700,FR,TORAY FILMS EUROPE sasu,Facture originale électronique à,e.supplierinvoice@torayfilms.eu,.,FR,003IV000010tSnAYAU,003IV000010tSnAYAU,006ci00000SrNOfAAN
001IV000015SADrYAO,012IV000001yk7WYAQ,Renewal,Backlog,EUR,true,false,30 days,Email,Transfer,ec.invoice@maxim-gruppe.de,Redevance 2026,false,,,ELYSEE COSMETIQUES sasu,,Zac Technopole Sud,FORBACH,57600,FR,ELYSEE COSMETIQUES sasu,Facture originale électronique à,ec.invoice@maxim-gruppe.de,.,FR,003IV000010t698YAA,003IV000010t698YAA,006ci00000SrNOgAAN
001IV000015S85xYAC,012IV000001yk7WYAQ,Renewal,Backlog,EUR,true,false,30 days,Email,Transfer,efact.fournisseur@acial.com,Redevance 2026,false,,,ACIAL sas,,14 avenue du Blanc,SAINT AIGNAN,41110,FR,ACIAL sas,Facture originale électronique à,efact.fournisseur@acial.com,.,FR,003IV000010t3szYAA,003IV000010tRdWYAU,006ci00000SrNOhAAN
001IV000015S507YAC,012IV000001yk7WYAQ,Renewal,Backlog,EUR,true,false,30 days,Email,Transfer,eggstaett-ssc_ap_fr_invoices@fossil.com,Redevance 2026,false,,,FOSSIL FRANCE sas,,Rue du Martelberg,MONSWILLER,67700,FR,FOSSIL FRANCE sas,Facture originale électronique à,eggstaett-ssc_ap_fr_invoices@fossil.com,.,FR,003IV000010rvHOYAY,003IV000010tQHsYAM,006ci00000SrNOiAAN
001IV000015SADoYAO,012IV000001yk7WYAQ,Renewal,Backlog,EUR,true,false,30 days,Email,Transfer,EICOMPTABILITE@e-i.com,Redevance 2026,false,,,EURO-INFORMATION - Européenne de Traitement de l'Information sas,Service Comptabilité,4 Rue Frédéric-Guillaume Raiffeisen,STRASBOURG,67000,FR,EURO-INFORMATION - Européenne de Traitement de l'Information sas,Facture originale électronique à,EICOMPTABILITE@e-i.com,.,FR,003IV000010su8rYAA,003IV000010su8rYAA,006ci00000SrNOjAAN
001IV000015RyE1YAK,012IV000001yk7WYAQ,Renewal,Backlog,EUR,true,false,30 days,Email,Transfer,einvoice-fr@fst.com,Redevance 2026,false,,,FREUDENBERG JOINTS PLATS sas,,2 Route de Nantiat - Le Betout,CHAMBORET,87140,FR,FREUDENBERG JOINTS PLATS sas,Facture originale électronique à,einvoice-fr@fst.com,.,FR,003IV000010su9QYAQ,003IV000010su9QYAQ,006ci00000SrNOkAAN
001IV000015S6VVYA0,012IV000001yk7WYAQ,Renewal,Backlog,EUR,true,false,30 days,Email,Transfer,ekasbarian@chapoutier.com,Redevance 2026,false,,,M. CHAPOUTIER sa,,18 Avenue du Docteur Paul Durand,TAIN L'HERMITAGE,26600,FR,M. CHAPOUTIER sa,Facture originale électronique à,ekasbarian@chapoutier.com,.,FR,003IV000010t22cYAA,003IV000010t22cYAA,006ci00000SrNOlAAN
001IV000015S50CYAS,012IV000001yk7WYAQ,Renewal,Backlog,EUR,true,false,30 days,Email,Transfer,elodie.linet@bicworld.com,Redevance 2026,false,,,BIC RASOIRS sasu,,422 rue du Port Salut,LONGUEIL SAINTE MARIE,60126,FR,BIC RASOIRS sasu,Facture originale électronique à,elodie.linet@bicworld.com,.,FR,003IV000010tQHyYAM,003IV000010t68lYAA,006ci00000SrNOmAAN
001IV000015S85sYAC,012IV000001yk7WYAQ,Renewal,Backlog,EUR,true,false,30 days,Email,Transfer,Elodie.martinerie@viskase.com,Redevance 2026,false,,,VISKASE sas,,9 Rue pierre de Coubertin,THAON-LES-VOSGES,88150,FR,VISKASE sas,Facture originale électronique à,Elodie.martinerie@viskase.com,.,FR,003IV000010tIeJYAU,003IV000010tIeJYAU,006ci00000SrNOnAAN
001IV000015S8igYAC,012IV000001yk7WYAQ,Renewal,Backlog,EUR,true,false,30 days,Email,Transfer,elodie.saudain@whatscooking.group,Redevance 2026,false,,,WHAT'S COOKING FRANCE sas,,ZI espace Zuckermann,MEZIDON VALLEE D'AUGE,14270,FR,WHAT'S COOKING FRANCE sas,Facture originale électronique à,elodie.saudain@whatscooking.group,.,FR,003IV000010t2ZhYAI,003IV000010t2ZhYAI,006ci00000SrNOoAAN
001IV000015SAHkYAO,012IV000001yk7WYAQ,Renewal,Backlog,EUR,true,false,30 days,Email,Transfer,em-earlymakers@factures.epithete.com,Redevance 2026,true,,2026-01-01,EARLY MAKERS GROUP sa,,23 Avenue Guy de Collonge,ECULLY,69130,FR,EARLY MAKERS GROUP sa,Facture originale électronique à,em-earlymakers@factures.epithete.com,.,FR,003IV000010rvHSYAY,003IV000010rvHSYAY,006ci00000SrNOpAAN
001IV000015RzTMYA0,012IV000001yk7WYAQ,Renewal,Backlog,EUR,true,false,30 days,Email,Transfer,emeartpinv@corning.com,Redevance 2026,true,,2026-01-01,CORNING POUYET SAS,,1 Rue Gutenberg,PONTCHATEAU,44160,FR,CORNING POUYET SAS,Facture originale électronique à,emeartpinv@corning.com,.,FR,003IV000010su9PYAQ,003IV000010su9PYAQ,006ci00000SrNOqAAN
001IV000015RzTWYA0,012IV000001yk7WYAQ,Renewal,Backlog,EUR,true,false,30 days,Email,Transfer,epique@roechling.com,Redevance 2026,false,,,ROCHLING INDUSTRIAL NANCY sas,,8 Rue André Fruchard,MAXEVILLE,54320,FR,ROCHLING INDUSTRIAL NANCY sas,Facture originale électronique à,epique@roechling.com,.,FR,003IV000010t4BOYAY,003IV000010t4BOYAY,006ci00000SrNOrAAN
001IV000015SJXYYA4,012IV000001yk7WYAQ,Renewal,Backlog,EUR,true,false,60 days,Email,Transfer,etienne.outrequin@rdam.nestle.com,Redevance 2026,true,,2026-01-01,CENTRES DE RECHERCHE ET DEVELOPPEMENT NESTLE sas,,Rue de l'Europe - BP 47,AUBIGNY,80800,FR,CENTRES DE RECHERCHE ET DEVELOPPEMENT NESTLE sas,Facture originale électronique à,etienne.outrequin@rdam.nestle.com,.,FR,003IV000010tJacYAE,003IV000010tJacYAE,006ci00000SrNOsAAN
001IV000015SAHoYAO,012IV000001yk7WYAQ,Renewal,Backlog,EUR,true,false,30 days,Email,Transfer,euroapi_ap_fr@bpopen.capgemini.com,Redevance 2026,true,,2026-01-01,EUROAPI FRANCE sasu,,32 Rue de Verdun BP 80125,SAINT-AUBIN-LES-ELBEUF,76410,FR,EUROAPI FRANCE sasu,Facture originale électronique à,euroapi_ap_fr@bpopen.capgemini.com,.,FR,003IV000010t0uxYAA,003IV000010t0uxYAA,006ci00000SrNOtAAN
001IV000015S1XOYA0,012IV000001yk7WYAQ,Renewal,Backlog,EUR,true,false,30 days,Email,Transfer,extern.melanie.suc@vwfs.com,Redevance 2026,false,,,VOLKSWAGEN BANK GESELLSCHAFT MIT BESCHRAENKTER HAFTUNG,Service RH,15 avenue de la Demi-Lune,ROISSY EN FRANCE,95700,FR,VOLKSWAGEN BANK GMBH,Facture originale électronique à,extern.melanie.suc@vwfs.com,.,FR,003IV000010t23RYAQ,003IV000010t2B5YAI,006ci00000SrNOuAAN
001IV000015SAHuYAO,012IV000001yk7WYAQ,Renewal,Backlog,EUR,true,false,30 days,Email,Transfer,f.gosselin@frenehard.com,Redevance 2026,false,,,FRENEHARD ET MICHAUX HOLDING sas,,Z.A. Les Bredollières,SAINT SYMPHORIEN DES BRUYERES,61300,FR,FRENEHARD ET MICHAUX HOLDING sas,Facture originale électronique à,f.gosselin@frenehard.com,.,FR,003IV000010tIiWYAU,003IV000010tIiWYAU,006ci00000SrNOvAAN
001IV000015SADsYAO,012IV000001yk7WYAQ,Renewal,Backlog,EUR,true,false,30 days,Email,Transfer,fabienne.richou@fromarsac.fr,Redevance 2026,false,,,FROMAGERIE DE VIHIERS sasu,,2 Route de Niort Saint-Hilaire du Bois,LYS HAUT LAYON,49310,FR,FROMAGERIE DE VIHIERS sasu,Facture originale électronique à,fabienne.richou@fromarsac.fr,.,FR,003IV000010t67oYAA,003IV000010t67oYAA,006ci00000SrNOwAAN
001IV000015S9GHYA0,012IV000001yk7WYAQ,Renewal,Backlog,EUR,true,false,30 days,Email,Transfer,fact.edi@aghfrance.com,Redevance 2026,false,,,ALAIN GLON HOLDING sa,,2 Rue Colonel Felix Robo,PONTIVY,56300,FR,ALAIN GLON HOLDING sa,Facture originale électronique à,fact.edi@aghfrance.com,.,FR,003IV000010su8VYAQ,003IV000010su8VYAQ,006ci00000SrNOxAAN
001IV000015RewIYAS,012IV000001yk7WYAQ,Renewal,Backlog,EUR,true,false,30 days,Email,Transfer,facturation.fournisseur@comatelec.fr,Redevance 2026,false,,,COMATELEC SCHREDER sas,Département RH,10 Allée des Cascades,VILLEPINTE,93420,FR,COMATELEC SCHREDER sas,Facture originale électronique à,facturation.fournisseur@comatelec.fr,.,FR,003IV000010tIiUYAU,003IV000010tIiUYAU,006ci00000SrNOyAAN
001IV000015RzTgYAK,012IV000001yk7WYAQ,Renewal,Backlog,EUR,true,false,30 days,Email,Transfer,facture.fournisseur@perrault.fr,Redevance 2026,false,,,FROMAGERIES PERREAULT sas,,Busseau-sur-Creuse,AHUN,23150,FR,FROMAGERIES PERREAULT sas,Facture originale électronique à,facture.fournisseur@perrault.fr,.,FR,003IV000010tPaAYAU,003IV000010tPaAYAU,006ci00000SrNOzAAN
001IV000015S2eaYAC,012IV000001yk7WYAQ,Renewal,Backlog,EUR,true,false,30 days,Email,Transfer,facture@dig.eurolysine.com,Redevance 2026,true,,2026-01-01,EUROLYSINE sasu,Ressources Humaines,60 Rue de Vaux - CS 18018,AMIENS Cedex 2,80084,FR,EUROLYSINE sasu,Facture originale électronique à,facture@dig.eurolysine.com,.,FR,003IV000010sqKfYAI,003IV000010sqKfYAI,006ci00000SrNP0AAN
001IV000015RzTiYAK,012IV000001yk7WYAQ,Renewal,Backlog,EUR,true,false,30 days,Email,Transfer,facture@nutriset.fr,Redevance 2026,false,,,NUTRISET sas,,Route du Bois Ricard,MALAUNAY,76770,FR,NUTRISET sas,Facture originale électronique à,facture@nutriset.fr,.,FR,003IV000010t9wzYAA,003IV000010t9wzYAA,006ci00000SrNP1AAN
001IV000015S2eWYAS,012IV000001yk7WYAQ,Renewal,Backlog,EUR,true,false,30 days,Email,Transfer,facturefournisseur.pdf@adeccogroup.com,Redevance 2026,false,,,PONTOON sasu,Comptabilité Fournisseur    Code analytique: A03,TSA 30014,LYON CEDEX 07,69407,FR,PONTOON sasu - Comptabilité Fournisseur,Facture originale électronique à,facturefournisseur.pdf@adeccogroup.com,.,FR,003IV000010scriYAA,003IV000010scriYAA,006ci00000SrNP2AAN
001IV000015RewRYAS,012IV000001yk7WYAQ,Renewal,Backlog,EUR,true,false,30 days,Email,Transfer,facturefournisseur.pdf@adeccogroup.com,Redevance 2026,false,,,ADECCO OUTSOURCING sasu,G010,2 Rue Henri Legay,VILLEURBANNE,69100,FR,ADECCO OUTSOURCING,Facture originale électronique à,facturefournisseur.pdf@adeccogroup.com,.,FR,003IV000010su8bYAA,003IV000010su8bYAA,006ci00000SrNP3AAN
001IV000015MBzIYAW,012IV000001yk7WYAQ,Renewal,Backlog,EUR,true,false,45 days,Email,Transfer,facturefournisseur.pdf@adeccogroup.com,Redevance 2026,false,,,ADECCO FRANCE,Service fournisseurs - Code analytique DSI,TSA 80010,LYON Cedex,69307,FR,ADECCO FRANCE,Facture originale électronique à,facturefournisseur.pdf@adeccogroup.com,.,FR,003IV000010rePGYAY,003IV000010scsHYAQ,006ci00000SrNP4AAN
001IV000015RewOYAS,012IV000001yk7WYAQ,Renewal,Backlog,EUR,true,false,30 days,Email,Transfer,facturefournisseur@aubinimprimeur.fr,Redevance 2026,false,,,AUBIN IMPRIMEUR sasu,,Chemin des 2 Croix,LIGUGE,86240,FR,AUBIN IMPRIMEUR sasu,Facture originale électronique à,facturefournisseur@aubinimprimeur.fr,.,FR,003IV000010tIicYAE,003IV000010tIicYAE,006ci00000SrNP5AAN
001IV000015RzTaYAK,012IV000001yk7WYAQ,Renewal,Backlog,EUR,true,false,30 days,Email,Transfer,facturefournisseur@groupebrandt.com,Redevance 2026,false,,,BRANDT FRANCE sas,,89-91 Boulevard Franklin Roosevelt -   CS 30002,RUEIL-MALMAISON,92500,FR,BRANDT FRANCE sas,Facture originale électronique à,facturefournisseur@groupebrandt.com,.,FR,003IV000010tLbeYAE,003IV000010tLbeYAE,006ci00000SrNP6AAN
001IV000015S8j6YAC,012IV000001yk7WYAQ,Renewal,Backlog,EUR,true,false,30 days,Email,Transfer,facture-fournisseur@volkswagengroup.fr,Redevance 2026,false,,,VOLKSWAGEN GROUP FRANCE sasu,,11 Avenue de Boursone,VILLIERS- COTTERETS,2600,FR,VOLKSWAGEN GROUP FRANCE sasu,Facture originale électronique à,facture-fournisseur@volkswagengroup.fr,.,FR,003IV000010tSrYYAU,003IV000010tSrYYAU,006ci00000SrNP7AAN
001IV000015RewBYAS,012IV000001yk7WYAQ,Renewal,Backlog,EUR,true,false,30 days,Email,Transfer,factures.corrugating@vpkgroup.com,Redevance 2026,false,,,VPK CORRUGATING sasu,,ZI Rouvroy Morcourt,SAINT QUENTIN,2315,FR,VPK CORRUGATING sasu,Facture originale électronique à,factures.corrugating@vpkgroup.com,.,FR,003IV000010tRU3YAM,003IV000010t2QSYAY,006ci00000SrNP8AAN
001IV000015S8iZYAS,012IV000001yk7WYAQ,Renewal,Backlog,EUR,true,false,30 days,Email,Transfer,factures.demat@groupesylvagreg.fr,Redevance 2026,false,,,ICARE sas,Comptabilité,137 rue de l'Egalité,LOMME,59160,FR,ICARE sas,Facture originale électronique à,factures.demat@groupesylvagreg.fr,.,FR,003IV000010t2GDYAY,003IV000010tIdcYAE,006ci00000SrNP9AAN
001IV000015S2STYA0,012IV000001yk7WYAQ,Renewal,Backlog,EUR,true,false,30 days,Email,Transfer,factures.fournisseurs@ghm.fr,Redevance 2026,false,,,GHM sasu,,Rue Antoine Durenne,SOMMEVOIRE,52220,FR,GHM sasu,Facture originale électronique à,factures.fournisseurs@ghm.fr,.,FR,003IV000010t4FTYAY,003IV000010t4FTYAY,006ci00000SrNPAAA3
001IV000015RyDmYAK,012IV000001yk7WYAQ,Renewal,Backlog,EUR,true,false,30 days,Email,Transfer,factures.fournisseurs@groupe-maine.com,Redevance 2026,false,,,GROUPE MAINE sasu,,13 Rue du Pas,AMBRIERES-LES-VALLEES,53300,FR,GROUPE MAINE sasu,Facture originale électronique à,factures.fournisseurs@groupe-maine.com,.,FR,003IV000010tJXlYAM,003IV000010tJXlYAM,006ci00000SrNPBAA3
001IV000015S2eAYAS,012IV000001yk7WYAQ,Renewal,Backlog,EUR,true,false,30 days,Email,Transfer,factures.fournisseurs@pierre-fabre.com,Redevance 2026,false,,,PIERRE FABRE MEDICAMENT sas,,16 Rue Jean Rostand,GAILLAC,81600,FR,PIERRE FABRE MEDICAMENT sas,Facture originale électronique à,factures.fournisseurs@pierre-fabre.com,.,FR,003IV000010tRVPYA2,003IV000010tRVPYA2,006ci00000SrNPCAA3
001IV000015S8ixYAC,012IV000001yk7WYAQ,Renewal,Backlog,EUR,true,false,45 days,Email,Transfer,factures.fournisseursabb@ironmountain.fr,Redevance 2026,true,,2026-01-01,ABB FRANCE sas,Service Comptable,324 Rue du Chat Botté - CS20400 BEYNOST,MIRIBEL CEDEX,1708,FR,ABB FRANCE sas,Facture originale électronique à,factures.fournisseursabb@ironmountain.fr,.,FR,003IV000010tSkYYAU,003IV000010tJXkYAM,006ci00000SrNPDAA3
001IV000015S8jAYAS,012IV000001yk7WYAQ,Renewal,Backlog,EUR,true,false,30 days,Email,Transfer,factures.interforum@interforum.fr,Redevance 2026,false,,,INTERFORUM sas,,92 Avenue de France,PARIS,75013,FR,INTERFORUM sas,Facture originale électronique à,factures.interforum@interforum.fr,.,FR,003IV000010su8qYAA,003IV000010su8qYAA,006ci00000SrNPEAA3
001IV000015S2SJYA0,012IV000001yk7WYAQ,Renewal,Backlog,EUR,true,false,30 days,Email,Transfer,factures.irigo@ratpdev.com,Redevance 2026,false,,,RD ANGERS sasu,,6 rue du Bois Rinier,SAINT-BARTHÉLEMY-D'ANJOU CEDEX,49180,FR,RD ANGERS sasu,Facture originale électronique à,factures.irigo@ratpdev.com,.,FR,003IV000010t2B6YAI,003IV000010t2B6YAI,006ci00000SrNPFAA3
001IV000015S86FYAS,012IV000001yk7WYAQ,Renewal,Backlog,EUR,true,false,45 days,Email,Transfer,factures.rossignol@rossignol.com,Redevance 2026,false,,,SKIS ROSSIGNOL - CLUB ROSSIGNOL sasu,Ressources Humaines,98 Rue Louis Barran,SAINT-JEAN-DE-MOIRANS,38430,FR,SKIS ROSSIGNOL - CLUB ROSSIGNOL sasu,Facture originale électronique à,factures.rossignol@rossignol.com,.,FR,003IV000010tIdXYAU,003IV000010tJZfYAM,006ci00000SrNPGAA3
001IV000015RzTZYA0,012IV000001yk7WYAQ,Renewal,Backlog,EUR,true,false,30 days,Email,Transfer,factures@cheddite.com,Redevance 2026,false,,,CHEDDITE FRANCE sa,,99 Avenue de Lyon,BOURG-LES-VALENCE,26500,FR,CHEDDITE FRANCE sa,Facture originale électronique à,factures@cheddite.com,.,FR,003IV000010tPaPYAU,003IV000010tPaOYAU,006ci00000SrNPHAA3
001IV000015S8iRYAS,012IV000001yk7WYAQ,Renewal,Backlog,EUR,true,false,30 days,Email,Transfer,factures@gallaud.com,Redevance 2026,false,,,SOCIETE FINANCIERE GALLAUD sas,,Zone Industrielle Les Narrons,ARGENTON SUR CREUSE,36200,FR,SOCIETE FINANCIERE GALLAUD sas,Facture originale électronique à,factures@gallaud.com,.,FR,003IV000010su9CYAQ,003IV000010su9CYAQ,006ci00000SrNPIAA3
001IV000015S8icYAC,012IV000001yk7WYAQ,Renewal,Backlog,EUR,true,false,30 days,Email,Transfer,factures@maisonberger.fr,Redevance 2026,false,,,PRODUITS BERGER sasu,,1342 rue d'Elbeuf -   Bourgtheroulde-Infreville,GRAND-BOURGTHEROULDE,27520,FR,PRODUITS BERGER sasu,Facture originale électronique à,factures@maisonberger.fr,0,FR,003IV000010t2FfYAI,003IV000010t2FfYAI,006ci00000SrNPJAA3
001IV000015RxtaYAC,012IV000001yk7WYAQ,Renewal,Backlog,EUR,true,false,30 days,Email,Transfer,factures@norac.fr,Redevance 2026,false,,,NORAC sas,,2 et 3 place Hoche,RENNES,35000,FR,NORAC sas,Facture originale électronique à,factures@norac.fr,.,FR,003IV000010sxGsYAI,003IV000010sxGsYAI,006ci00000SrNPKAA3
001IV000015S8iVYAS,012IV000001yk7WYAQ,Renewal,Backlog,EUR,true,false,30 days,Email,Transfer,factures@snf.com,Redevance 2026,false,,,SNF SA - WATER SCIENCE,,"ZAC de Milieux, Rue Adrienne Bolland",ANDREZIEUX,42163,FR,SNF SA - WATER SCIENCE,Facture originale électronique à,factures@snf.com,.,FR,003IV000010su8HYAQ,003IV000010su8HYAQ,006ci00000SrNPLAA3
001IV000015RzTPYA0,012IV000001yk7WYAQ,Renewal,Backlog,EUR,true,false,45 days,Email,Transfer,factures_picot@dirickx.com,Redevance 2026,false,,,PICOT sasu,,Le Bas Rocher,CONGRIER,53800,FR,PICOT sasu,Facture originale électronique à,factures_picot@dirickx.com,.,FR,003IV000010tJZxYAM,003IV000010tJZxYAM,006ci00000SrNPMAA3
001IV000015Rew7YAC,012IV000001yk7WYAQ,Renewal,Backlog,EUR,true,false,30 days,Email,Transfer,facturesats@ats-centre.fr,Redevance 2026,false,,,APPLICATION TRAVAUX SPECIAUX - A.T.S. sas,Madame Virginie PAUL,4 impasse de la Briaudière,BALLAN MIRE,37510,FR,APPLICATION TRAVAUX SPECIAUX - A.T.S. sas,Facture originale électronique à,facturesats@ats-centre.fr,.,FR,003IV000010t23DYAQ,003IV000010t23DYAQ,006ci00000SrNPNAA3
001IV000015S86CYAS,012IV000001yk7WYAQ,Renewal,Backlog,EUR,true,false,30 days,Email,Transfer,factures-fourn@groupe-eda.com,Redevance 2026,false,,,ETABLISSEMENTS GEORGES DAVID sas,,36-40 Rue des Carmes,OYONNAX,1100,FR,ETABLISSEMENTS GEORGES DAVID sas,Facture originale électronique à,factures-fourn@groupe-eda.com,.,FR,003IV000010tJZSYA2,003IV000010tJZSYA2,006ci00000SrNPOAA3
001IV000015RzTNYA0,012IV000001yk7WYAQ,Renewal,Backlog,EUR,true,false,30 days,Email,Transfer,facturesfrs.france@akwel-automotive.com,Redevance 2026,true,,2026-01-01,AKWEL sa,,975 Route des Burgondes,CHAMPFROMIER,1410,FR,AKWEL sa,Facture originale électronique à,facturesfrs.france@akwel-automotive.com,.,FR,003IV000010tJZhYAM,003IV000010tJZhYAM,006ci00000SrNPPAA3
001IV000015SADtYAO,012IV000001yk7WYAQ,Renewal,Backlog,EUR,true,false,45 days,Email,Transfer,facturesgerflorsas@gerflor.com,Redevance 2026,true,,2026-01-01,GERFLOR sasu,Comptabilité Fournisseur -Centre de Service Partagé,ZI du bois des lots - BP6,SAINT PAUL TROIS CHATEAUX,26130,FR,GERFLOR sasu,Facture originale électronique à,facturesgerflorsas@gerflor.com,.,FR,003IV000010su8hYAA,003IV000010tFE1YAM,006ci00000SrNPQAA3
001IV000015S8ikYAC,012IV000001yk7WYAQ,Renewal,Backlog,EUR,true,false,30 days,Email,Transfer,fcryo.factures@fivesgroup.com,Redevance 2026,false,,,FIVES CRYO sas,,25 rue du Fort,GOLBEY,88190,FR,FIVES CRYO sas,Facture originale électronique à,fcryo.factures@fivesgroup.com,.,FR,003IV000010t2FRYAY,003IV000010t2FRYAY,006ci00000SrNPRAA3
001IV000015S8jCYAS,012IV000001yk7WYAQ,Renewal,Backlog,EUR,true,false,30 days,Email,Transfer,fgfin@dimotrans-group.com,Redevance 2026,false,,,FINANCIERE DIMOTRANS sasu,,Chemin du bois des Aies,PUSIGNAN,69282,FR,FINANCIERE DIMOTRANS sas,Facture originale électronique à,fgfin@dimotrans-group.com,.,FR,003IV000010su94YAA,003IV000010su94YAA,006ci00000SrNPSAA3
001IV000015S85vYAC,012IV000001yk7WYAQ,Renewal,Backlog,EUR,true,false,45 days,Email,Transfer,finance.farmea@fareva.com,Redevance 2026,false,,,FARMEA sasu,,10 rue Bouché Thomas,ANGERS,49007,FR,FARMEA sasu,Facture originale électronique à,finance.farmea@fareva.com,.,FR,003IV000010tIeWYAU,003IV000010tIeWYAU,006ci00000SrNPTAA3
001IV000015S2SSYA0,012IV000001yk7WYAQ,Renewal,Backlog,EUR,true,false,30 days,Email,Transfer,finance.fr@wavin.com,Redevance 2026,true,,2026-01-01,WAVIN FRANCE sasu,,1 ZI La Feuillouse,VARENNES SUR ALLIER,3150,FR,WAVIN FRANCE sasu,Facture originale électronique à,finance.fr@wavin.com,.,FR,003IV000010t45KYAQ,003IV000010t45KYAQ,006ci00000SrNPUAA3
001IV000015RyDtYAK,012IV000001yk7WYAQ,Renewal,Backlog,EUR,true,false,30 days,Email,Transfer,financefr@csmingredients.com,Redevance 2026,true,,2026-01-01,CSM FRANCE sas,,18 Rue de la Robertsau,BISCHHEIM,67800,FR,CSM FRANCE sas,Facture originale électronique à,financefr@csmingredients.com,.,FR,003IV000010tI5QYAU,003IV000010tTqfYAE,006ci00000SrNPVAA3
001IV000015l3aLYAQ,012IV000001yk7WYAQ,Renewal,Backlog,EUR,true,false,60 days,Email,Transfer,fk_france@fresenius-kabi.com,Redevance 2026,false,,,FRESENIUS KABI FRANCE sas,Centre de coût 1N0308,5 PLACE DU MARIVEL,SEVRES CEDEX,92316,FR,FRESENIUS KABI FRANCE sas,Facture originale électronique à,fk_france@fresenius-kabi.com,.,FR,003IV000010su9IYAQ,003IV000010su9IYAQ,006ci00000SrNPWAA3
001IV000015S2eSYAS,012IV000001yk7WYAQ,Renewal,Backlog,EUR,true,false,30 days,Email,Transfer,fmcfr.ap@fmc.com,Redevance 2026,false,,,FMC FRANCE sasu,,11 bis Quai Perrache,LYON,69002,FR,FMC FRANCE sasu,Facture originale électronique à,fmcfr.ap@fmc.com,.,FR,003IV000010tIdxYAE,003IV000010tIdxYAE,006ci00000SrNPXAA3
001IV000015S8j7YAC,012IV000001yk7WYAQ,Renewal,Backlog,EUR,true,false,30 days,Email,Transfer,fmof_stjean.invoices@tenneco.com,Redevance 2026,false,,,FEDERAL MOGUL OPERATIONS FRANCE SAS,,13 Place Paul Bert,ST JEAN DE LA RUELLE,45140,FR,FEDERAL MOGUL OPERATIONS FRANCE SAS,Facture originale électronique à,fmof_stjean.invoices@tenneco.com,.,FR,003IV000010tSn5YAE,003IV000010tSn4YAE,006ci00000SrNPYAA3
001IV000015RewDYAS,012IV000001yk7WYAQ,Renewal,Backlog,EUR,true,false,30 days,Email,Transfer,fournisseurs.compta@montpellier-bs.com,Redevance 2026,false,,,MBS association,Montpellier Business School,"2300, Avenue des Moulins",MONTPELLIER,34185,FR,MBS association,Facture originale électronique à,fournisseurs.compta@montpellier-bs.com,.,FR,003IV000010tIiFYAU,003IV000010t3BdYAI,006ci00000SrNPZAA3
001IV000015SAHpYAO,012IV000001yk7WYAQ,Renewal,Backlog,EUR,true,false,60 days,Email,Transfer,fournisseurs.remymartin@remyècointreau.com,Redevance 2026,true,,2026-01-01,E.Remy Martin & C°,,1208 avenue de la Grande Champagne,COGNAC,16100,FR,E.Remy Martin & Cie sasu,Facture originale électronique à,fournisseurs.remymartin@remyècointreau.com,.,FR,003IV000010t6sEYAQ,003IV000010t6sEYAQ,006ci00000SrNPaAAN
001IV000015S6ZxYAK,012IV000001yk7WYAQ,Renewal,Backlog,EUR,true,false,30 days,Email,Transfer,fournisseurs@abrisud.fr,Redevance 2026,false,,,ABRISUD sasu,Comptabilité Fournisseurs,ZI du Pont Peyrin,L'ISLE JOURDAIN,32600,FR,ABRISUD sasu,Facture originale électronique à,fournisseurs@abrisud.fr,.,FR,003IV000010tQHrYAM,003IV000010tQHrYAM,006ci00000SrNPbAAN
001IV000015SAHtYAO,012IV000001yk7WYAQ,Renewal,Backlog,EUR,true,false,30 days,Email,Transfer,fournisseurs@locmaria.fr,Redevance 2026,false,,,LOC MARIA BISCUITS sasu,,1 rue de Pélineuc,LANVALLAY,22100,FR,LOC MARIA BISCUITS sasu,Facture originale électronique à,fournisseurs@locmaria.fr,.,FR,003IV000010tJa4YAE,003IV000010tJa4YAE,006ci00000SrNPcAAN
001IV000015S861YAC,012IV000001yk7WYAQ,Renewal,Backlog,EUR,true,false,30 days,Email,Direct Debit,fournisseurs@styves.uco.fr,Redevance 2026,false,,,ASSOCIATION SAINT-YVES (UCO),,3 place André Leroy - BP 10808,ANGERS CEDEX 1,49008,FR,ASSOCIATION SAINT-YVES (UCO),Facture originale électronique à,fournisseurs@styves.uco.fr,.,FR,003IV000010su86YAA,003IV000010su86YAA,006ci00000SrNPdAAN
001IV000015RyE9YAK,012IV000001yk7WYAQ,Renewal,Backlog,EUR,true,false,45 days,Email,Transfer,frap@parker.com,Redevance 2026,false,,,PARKER HANNIFIN FRANCE sasu,,17 Rue des Bûchillons  CS80524 Ville la Grand,ANNEMASSE CEDEX,74112,FR,PARKER HANNIFIN FRANCE sasu,Facture originale électronique à,frap@parker.com,.,FR,003IV000010tJZoYAM,003IV000010tJZoYAM,006ci00000SrNPeAAN
001IV000015S8iQYAS,012IV000001yk7WYAQ,Renewal,Backlog,EUR,true,false,30 days,Email,Transfer,frsaccountspayable.ccc@kuraray.com,Redevance 2026,false,,,CHEMVIRON FRANCE SAS,,58 Avenue de Wagram,PARIS,75017,FR,CHEMVIRON FRANCE SAS,Facture originale électronique à,frsaccountspayable.ccc@kuraray.com,.,FR,003IV000010tJZXYA2,003IV000010tJZXYA2,006ci00000SrNPfAAN
001IV000015RyE3YAK,012IV000001yk7WYAQ,Renewal,Backlog,EUR,true,false,30 days,Email,Transfer,frsapservices@columbia.com,Redevance 2026,false,,,COLUMBIA SPORTSWEAR DISTRIBUTION sas,,1542 avenue des Deux Vallées -   Parc d'activité Actipole de l'A2,RAILLENCOURT-SAINTE-OLLE,59554,FR,COLUMBIA SPORTSWEAR DISTRIBUTION sas,Facture originale électronique à,frsapservices@columbia.com,.,FR,003IV000010tJajYAE,003IV000010tJajYAE,006ci00000SrNPgAAN
001IV000015S2eGYAS,012IV000001yk7WYAQ,Renewal,Backlog,EUR,true,false,30 days,Email,Transfer,frsu.compta.fournisseurs@swisskrono.com,Redevance 2026,false,,,SWISS KRONO SAS,Service Comptabilité fournisseurs,Route de Cerdon,SULLY SUR LOIRE,45600,FR,SWISS KRONO SAS,Facture originale électronique à,frsu.compta.fournisseurs@swisskrono.com,.,FR,003IV000010tRW3YAM,003IV000010tRW3YAM,006ci00000SrNPhAAN
001IV000015SAFjYAO,012IV000001yk7WYAQ,Renewal,Backlog,EUR,true,false,30 days,Email,Transfer,g.paugam@groupe-telegramme-services.fr,Redevance 2026,false,,,GROUPE TELEGRAMME SERVICES sasu,,7 Voie d'accès au Port,MORLAIX,29600,FR,GROUPE TELEGRAMME SERVICES sasu,Facture originale électronique à,g.paugam@groupe-telegramme-services.fr,.,FR,003IV000010su8uYAA,003IV000010su8uYAA,006ci00000SrNPiAAN
001IV000015RzTdYAK,012IV000001yk7WYAQ,Renewal,Backlog,EUR,true,false,30 days,Email,Transfer,g_lfr_comptabilite@lindalgroup.com,Redevance 2026,false,,,LINDAL FRANCE sas,,4 rue Gustave Eiffel,VAL DE BRIEY,54150,FR,LINDAL FRANCE sas,Facture originale électronique à,g_lfr_comptabilite@lindalgroup.com,.,FR,003IV000010tPaKYAU,003IV000010tPaKYAU,006ci00000SrNPjAAN
001IV000015S2eYYAS,012IV000001yk7WYAQ,Renewal,Backlog,EUR,true,false,30 days,Email,Transfer,gabriel.dalin@ball.com,Redevance 2026,false,,,BALL AEROSOL PACKAGING FRANCE S.A.S,,"105 imp de la Valserine, Chatillon en Michaille",VALSERHONE,1200,FR,BALL AEROSOL PACKAGING FRANCE S.A.S,Facture originale électronique à,gabriel.dalin@ball.com,.,FR,003IV000010tRdYYAU,003IV000010tRdYYAU,006ci00000SrNPkAAN
001IV000015RzTLYA0,012IV000001yk7WYAQ,Renewal,Backlog,EUR,true,false,30 days,Email,Transfer,gaelle.demeule@st-ji.com,Redevance 2026,false,,,SAINT JEAN INDUSTRIES sas,,"ZAC Des Gouchoux, BP186",SAINT JEAN D'ARDIERES,69220,FR,SAINT JEAN INDUSTRIES sas,Facture originale électronique à,gaelle.demeule@st-ji.com,.,FR,003IV000010su8cYAA,003IV000010su8cYAA,006ci00000SrNPlAAN
001IV000015RzThYAK,012IV000001yk7WYAQ,Renewal,Backlog,EUR,true,false,30 days,Email,Transfer,gbr-wantage.frssc-ap@eur.crowncork.com,Redevance 2026,false,,,CROWN BEVCAN FRANCE SAS,,203 Boulevard de Finland Parc Eiffel -   Energie BP 18,CUSTINES,54670,FR,CROWN BEVCAN FRANCE SAS,Facture originale électronique à,gbr-wantage.frssc-ap@eur.crowncork.com,.,FR,003IV000010tJZyYAM,003IV000010tJZyYAM,006ci00000SrNPmAAN
001IV000015S8iPYAS,012IV000001yk7WYAQ,Renewal,Backlog,EUR,true,false,30 days,Email,Transfer,gfaucher@littelfuse.com,Redevance 2026,true,,2026-01-01,C&K COMPONENTS SAS,,2 Rue Berthollet,DOLE,39100,FR,C&K COMPONENTS SAS,Facture originale électronique à,gfaucher@littelfuse.com,.,FR,003IV000010tJZPYA2,003IV000010tJZPYA2,006ci00000SrNPnAAN
001IV000015S8ibYAC,012IV000001yk7WYAQ,Renewal,Backlog,EUR,true,false,30 days,Email,Transfer,helene.valaize@estivin.fr,Redevance 2026,false,,,ESTIVIN GROUPE HOLDING FINANCE sas - EGHF,Service RH,Avenue Vatel,TOURS,37000,FR,ESTIVIN GROUPE HOLDING FINANCE sas - EGHF,Facture originale électronique à,helene.valaize@estivin.fr,.,FR,003IV000010tIe1YAE,003IV000010tIe1YAE,006ci00000SrNPoAAN
001IV000015SAI7YAO,012IV000001yk7WYAQ,Renewal,Backlog,EUR,true,false,45 days,Email,Transfer,hmcinvoices@hmclause.com,Redevance 2026,false,,,HM CLAUSE sas,,83 Rue Louis de Saillant,PORTES-LES-VALENCE,26800,FR,HM CLAUSE sas,Facture originale électronique à,hmcinvoices@hmclause.com,.,FR,003IV000010su92YAA,003IV000010su91YAA,006ci00000SrNPpAAN
001IV000015S2eXYAS,012IV000001yk7WYAQ,Renewal,Backlog,EUR,true,false,30 days,Email,Transfer,i.leroy@sarrel.com,Redevance 2026,false,,,SARREL sas,RH,38 Rue Paul Chevalier,MAROLLES LES BRAULTS,72260,FR,SARREL sas,Facture originale électronique à,i.leroy@sarrel.com,.,FR,003IV000010tRWkYAM,003IV000010tRWkYAM,006ci00000SrNPqAAN
001IV000015RyDgYAK,012IV000001yk7WYAQ,Renewal,Backlog,EUR,true,false,60 days,Email,Transfer,ice_1296@basf.com,Redevance 2026,true,,2026-01-01,BASF AGRI PRODUCTION SAS,,21 Chemin de la Sauvegarde,ECULLY CEDEX,69130,FR,BASF AGRI PRODUCTION SAS,Facture originale électronique à,ice_1296@basf.com,.,FR,003IV000010tI5EYAU,003IV000010tI5EYAU,006ci00000SrNPrAAN
001IV000015S8inYAC,012IV000001yk7WYAQ,Renewal,Backlog,EUR,true,false,30 days,Email,Transfer,industries.fact@cofel.biz,Redevance 2026,false,,,COFEL INDUSTRIES sasu,,57 rue Yves Kermen,BOULOGNE BILLANCOURT,92100,FR,COFEL INDUSTRIES sasu,Facture originale électronique à,industries.fact@cofel.biz,.,FR,003IV000010rnuiYAA,003IV000010tIiIYAU,006ci00000SrNPsAAN
001IV000015S85jYAC,012IV000001yk7WYAQ,Renewal,Backlog,EUR,true,false,30 days,Email,Transfer,invoice.0070@mewa.fr,Redevance 2026,false,,,SARL MEWA,,Rue Gebauer,AVERMES,3000,FR,SARL MEWA,Facture originale électronique à,invoice.0070@mewa.fr,.,FR,003IV000010rLDWYA2,003IV000010rLDWYA2,006ci00000SrNPtAAN
001IV000015SAFhYAO,012IV000001yk7WYAQ,Renewal,Backlog,EUR,true,false,30 days,Email,Transfer,invoice.france@ipaper.com,Redevance 2026,false,,,INTERNATIONAL PAPER SAINT-AMAND SAS,,Avenue de la Gare,SAINT AMAND VILLAGES,50160,FR,INTERNATIONAL PAPER SAINT-AMAND SAS,Facture originale électronique à,invoice.france@ipaper.com,.,FR,003IV000010t301YAA,003IV000010t301YAA,006ci00000SrNPuAAN
001IV000015SAFaYAO,012IV000001yk7WYAQ,Renewal,Backlog,EUR,true,false,30 days,Email,Transfer,invoice@mavic.com,Redevance 2026,false,,,MAVIC GROUP sasu,,44 rue Saturne,CHAVANOD,74650,FR,MAVIC GROUP sasu,Facture originale électronique à,invoice@mavic.com,.,FR,003IV000010t2QMYAY,003IV000010t2QMYAY,006ci00000SrNPvAAN
001IV000015RzTRYA0,012IV000001yk7WYAQ,Renewal,Backlog,EUR,true,false,30 days,Email,Transfer,invoice@minitubes.com,Redevance 2026,true,,2026-01-01,MINITUBES sas,,21 Rue Jean Vaujany,GRENOBLE,38100,FR,MINITUBES sas,Facture originale électronique à,invoice@minitubes.com,.,FR,003IV000010tJaeYAE,003IV000010tJaeYAE,006ci00000SrNPwAAN
001IV000015S509YAC,012IV000001yk7WYAQ,Renewal,Backlog,EUR,true,false,30 days,Email,Transfer,invoice@sacmi.fr,Redevance 2026,false,,,SACMI sas,SOCIETE SAVOYARDE DE CONSTRUCTION     ET DE MATERIEL INDUSTRIEL sas,396 route des Chênes,GILLY SUR ISERE,73200,FR,SACMI sas,Facture originale électronique à,invoice@sacmi.fr,.,FR,003IV000010tQHbYAM,003IV000010tQHbYAM,006ci00000SrNPxAAN
001IV000015SADpYAO,012IV000001yk7WYAQ,Renewal,Backlog,EUR,true,false,30 days,Email,Transfer,invoicedaregal@daregal.fr,Redevance 2026,false,,,DAREGAL sas,,6 Boulevard du Maréchal Joffre,MILLY LA FORET,91490,FR,DAREGAL sas,Facture originale électronique à,invoicedaregal@daregal.fr,.,FR,003IV000010rv3VYAQ,003IV000010rv3VYAQ,006ci00000SrNPyAAN
001IV000015S86AYAS,012IV000001yk7WYAQ,Renewal,Backlog,EUR,true,false,30 days,Email,Transfer,invoice-fr@haribo.com,Redevance 2026,false,,,HARIBO RICQLES ZAN sa,,67 Boulevard du Capitaine Gèze,MARSEILLE,13014,FR,HARIBO RICQLES ZAN sa,Facture originale électronique à,invoice-fr@haribo.com,.,FR,003IV000010tRdrYAE,003IV000010tRdrYAE,006ci00000SrNPzAAN
001IV000015S4lCYAS,012IV000001yk7WYAQ,Renewal,Backlog,EUR,true,false,45 days,Email,Transfer,invoice-fr@lindt.com,Redevance 2026,false,,,LINDT & SPRUNGLI sas,,112 avenue Kléber,PARIS,75116,FR,LINDT & SPRUNGLI sas,Facture originale électronique à,invoice-fr@lindt.com,.,FR,003IV000010tRyuYAE,003IV000010tRUIYA2,006ci00000SrNQ0AAN
001IV000015SAFcYAO,012IV000001yk7WYAQ,Renewal,Backlog,EUR,true,false,30 days,Email,Transfer,invoices.courville@metalor.com,Redevance 2026,false,,,METALOR TECHNOLOGIES ELECTROTECHNICS FRANCE sasu,,Rue des Aquées - BP 29,COURVILLE SUR EURE,28190,FR,METALOR TECHNOLOGIES ELECTROTECHNICS FRANCE sasu,Facture originale électronique à,invoices.courville@metalor.com,.,FR,003IV000010t2GbYAI,003IV000010t2GbYAI,006ci00000SrNQ1AAN
001IV000015SAI8YAO,012IV000001yk7WYAQ,Renewal,Backlog,EUR,true,false,60 days,Email,Transfer,invoices.mcs@mersen.com,Redevance 2026,false,,,MERSEN CORPORATE SERVICES SAS,,Tour Trinity - 1 bis Place de la Défense,COURBEVOIE,92400,FR,MERSEN CORPORATE SERVICES SAS,Facture originale électronique à,invoices.mcs@mersen.com,.,FR,003IV000010su9FYAQ,003IV000010su9FYAQ,006ci00000SrNQ2AAN
001IV000015RyL1YAK,012IV000001yk7WYAQ,Renewal,Backlog,EUR,true,false,30 days,Email,Transfer,invoices.upsa.fr@upsa-ph.com,Redevance 2026,true,,2026-01-01,UPSA sasu,,3 rue Joseph Monier,RUEIL-MALMAISON,92500,FR,UPSA sasu,Facture originale électronique à,invoices.upsa.fr@upsa-ph.com,.,FR,003IV000010tJXbYAM,003IV000010tJXbYAM,006ci00000SrNQ3AAN
001IV000015S2eDYAS,012IV000001yk7WYAQ,Renewal,Backlog,EUR,true,false,30 days,Email,Transfer,invoices@fieldturftarkett.com,Redevance 2026,false,,,FIELDTURF TARKETT sasu,,91 rue Chateaubriand,AUCHEL,62260,FR,FIELDTURF TARKETT sasu,Facture originale électronique à,invoices@fieldturftarkett.com,.,FR,003IV000010tRW4YAM,003IV000010tRW4YAM,006ci00000SrNQ4AAN
001IV000015S8iWYAS,012IV000001yk7WYAQ,Renewal,Backlog,EUR,true,false,60 days,Email,Transfer,invoices@redoute.com,Redevance 2026,false,,,LA REDOUTE sasu,Service recrutement - DRH1200,110 Rue de Blanchemaille,ROUBAIX,59100,FR,LA REDOUTE sasu,Facture originale électronique à,invoices@redoute.com,.,FR,003IV000010sxGwYAI,003IV000010tWWPYA2,006ci00000SrNQ5AAN
001IV000015S2eLYAS,012IV000001yk7WYAQ,Renewal,Backlog,EUR,true,false,60 days,Email,Transfer,Invoices_Imerys.FR@email.basware.com,Redevance 2026,true,,2026-01-01,IMERYS SA,,43 Quai de Grenelle,PARIS,75015,FR,IMERYS SA,Facture originale électronique à,Invoices_Imerys.FR@email.basware.com,.,FR,003IV000010su8CYAQ,003IV000010su8CYAQ,006ci00000SrNQ6AAN
001IV000015S2eIYAS,012IV000001yk7WYAQ,Renewal,Backlog,EUR,true,false,30 days,Email,Transfer,invoices_quadient@quadient.com,Redevance 2026,false,,,QUADIENT FRANCE sas,,7 Rue Henri Becquerel,RUEIL MALMAISON,92500,FR,QUADIENT FRANCE sas,Facture originale électronique à,invoices_quadient@quadient.com,.,FR,003IV000010tRWEYA2,003IV000010tRWEYA2,006ci00000SrNQ7AAN
001IV000015S8nNYAS,012IV000001yk7WYAQ,Renewal,Backlog,EUR,true,false,30 days,Email,Transfer,invoices-duchavany@gindre.com,Redevance 2026,false,,,GINDRE DUCHAVANY,,31 rue Giffard,PONT DE CHERUY,38230,FR,GINDRE DUCHAVANY,Facture originale électronique à,invoices-duchavany@gindre.com,.,FR,003IV000010tRWDYA2,003IV000010tRWDYA2,006ci00000SrNQ8AAN
001IV000015S6ZzYAK,012IV000001yk7WYAQ,Renewal,Backlog,EUR,true,false,30 days,Email,Transfer,isabelle.bruneel@soflacobat.fr,Redevance 2026,false,,,SOFLACOBAT sas,,940 Route de Strazeele,CAESTRE,59190,FR,SOFLACOBAT sas,Facture originale électronique à,isabelle.bruneel@soflacobat.fr,.,FR,003IV000010sxFiYAI,003IV000010tPaXYAU,006ci00000SrNQ9AAN
001IV000015S8ivYAC,012IV000001yk7WYAQ,Renewal,Backlog,EUR,true,false,30 days,Email,Transfer,j.godof@lacroix.group,Redevance 2026,false,,,KELIAS sasu,,8 Impasse du Bourrelier -   BP 30004,SAINT HERBLAIN CEDEX,44801,FR,KELIAS sasu,Facture originale électronique à,j.godof@lacroix.group,.,FR,003IV000010tSmaYAE,003IV000010tSmaYAE,006ci00000SrNQAAA3
001IV000015SAIAYA4,012IV000001yk7WYAQ,Renewal,Backlog,EUR,true,false,30 days,Email,Transfer,jdagoreau@savoy-moulage.com,Redevance 2026,false,,,SAVOY MOULAGE sasu,,52 Rue Guillaume Fichet,CLUSES,74300,FR,SAVOY MOULAGE sasu,Facture originale électronique à,jdagoreau@savoy-moulage.com,.,FR,003IV000010t9x4YAA,003IV000010t9x4YAA,006ci00000SrNQBAA3
001IV000015S2SLYA0,012IV000001yk7WYAQ,Renewal,Backlog,EUR,true,false,30 days,Email,Transfer,jeremy.rosamond@sa-deneuville.fr,Redevance 2026,false,,,DE NEUVILLE sas,,8 promenade de la Chocolaterie,NOISEL,77186,FR,DE NEUVILLE sas,Facture originale électronique à,jeremy.rosamond@sa-deneuville.fr,.,FR,003IV000010t2AgYAI,003IV000010t2AgYAI,006ci00000SrNQCAA3
001IV000015S2SPYA0,012IV000001yk7WYAQ,Renewal,Backlog,EUR,true,false,30 days,Email,Transfer,jerome.cottereau@qualiform.pro,Redevance 2026,false,,,QUALIFORM sasu,,Route d'Arfontaine - Parc Industriel Ouest Veyziat,OYONNAX,1100,FR,QUALIFORM sasu,Facture originale électronique à,jerome.cottereau@qualiform.pro,.,FR,003IV000010su89YAA,003IV000010su89YAA,006ci00000SrNQDAA3
001IV000015S50NYAS,012IV000001yk7WYAQ,Renewal,Backlog,EUR,true,false,30 days,Email,Transfer,julia.rioult@axe-group.com,Redevance 2026,false,,,AXE GROUP sas,Service RH,661 rue de la Libération,SANT DESIR,14100,FR,AXE GROUP sas,Facture originale électronique à,julia.rioult@axe-group.com,.,FR,003IV000010tQHlYAM,003IV000010su8JYAQ,006ci00000SrNQEAA3
001IV000015RewLYAS,012IV000001yk7WYAQ,Renewal,Backlog,EUR,true,false,30 days,Email,Transfer,julie.jerome@gates.com,Redevance 2026,false,,,GATES SAS,,111 Rue Francis Garnier,NEVERS,58000,FR,GATES SAS,Facture originale électronique à,julie.jerome@gates.com,.,FR,003IV000010tRTfYAM,003IV000010tRTfYAM,006ci00000SrNQFAA3
001IV000015S85nYAC,012IV000001yk7WYAQ,Renewal,Backlog,EUR,true,false,30 days,Email,Transfer,kalistrut.accountpayable@pccairframe.com,Redevance 2026,false,,,KALISTRUT AEROSPACE sasu,,1 Avenue Marc Seguin,SAINT-VALLIER,26240,FR,KALISTRUT AEROSPACE sasu,Facture originale électronique à,kalistrut.accountpayable@pccairframe.com,.,FR,003IV000010tJasYAE,003IV000010tJasYAE,006ci00000SrNQGAA3
001IV000015RyDsYAK,012IV000001yk7WYAQ,Renewal,Backlog,EUR,true,false,30 days,Email,Transfer,karine.rignaux@nobelautomotive.com,Redevance 2026,false,,,NOBEL PLASTIQUES sasu,,"Rue de l'Europe, ZI Marolles",VITRY LE FRANCOIS,51300,FR,NOBEL PLASTIQUES sasu,Facture originale électronique à,karine.rignaux@nobelautomotive.com,.,FR,003IV000010sxGvYAI,003IV000010sxGvYAI,006ci00000SrNQHAA3
001IV000015S2eJYAS,012IV000001yk7WYAQ,Renewal,Backlog,EUR,true,false,30 days,Email,Transfer,kathy.toutlemonde@bausch.com,Redevance 2026,false,,,LABORATOIRE CHAUVIN sas,,ZI de Ripotier -   50 Avenue Jean Monnet,AUBENAS,7200,FR,LABORATOIRE CHAUVIN sas,Facture originale électronique à,kathy.toutlemonde@bausch.com,.,FR,003IV000010t8Y4YAI,003IV000010t8Y4YAI,006ci00000SrNQIAA3
001IV000015S8iuYAC,012IV000001yk7WYAQ,Renewal,Backlog,EUR,true,false,30 days,Email,Transfer,kuhnsa.supplierinvoice@kuhn.com,Redevance 2026,true,,2026-01-01,KUHN SAS,,4 impasse des Fabriques,SAVERNE,67700,FR,KUHN SAS,Facture originale électronique à,kuhnsa.supplierinvoice@kuhn.com,.,FR,003IV000010tSkWYAU,003IV000010tSkWYAU,006ci00000SrNQJAA3
001IV000015S86GYAS,012IV000001yk7WYAQ,Renewal,Backlog,EUR,true,false,30 days,Email,Transfer,laurence.zimmermann@sealedair.com,Redevance 2026,false,,,SEALED AIR SAS,,53 Rue Saint- Denis,EPERNON,28230,FR,SEALED AIR SAS,Facture originale électronique à,laurence.zimmermann@sealedair.com,.,FR,003IV000010t1hzYAA,003IV000010t1hzYAA,006ci00000SrNQKAA3
001IV000015RyDyYAK,012IV000001yk7WYAQ,Renewal,Backlog,EUR,true,false,30 days,Email,Transfer,laurent.guilmin@wkw-group.com,Redevance 2026,false,,,WKW FRANCE sarl,,Les Molières - Route de Richerenches - BP 24,VALEREAS,84600,FR,WKW FRANCE sarl,Facture originale électronique à,laurent.guilmin@wkw-group.com,.,FR,003IV000010su9DYAQ,003IV000010su9DYAQ,006ci00000SrNQLAA3
001IV000015S8j1YAC,012IV000001yk7WYAQ,Renewal,Backlog,EUR,true,false,30 days,Email,Transfer,LFBBIOMEDICAMENTS@email.basware.com,Redevance 2026,true,,2026-01-01,LFB BIOMEDICAMENTS sa,,Za de Courtaboeuf - Les Ulis  3 Avenue des Tropiques,LES ULIS,91940,FR,LFB BIOMEDICAMENTS sa,Facture originale électronique à,LFBBIOMEDICAMENTS@email.basware.com,.,FR,003IV000010tSnNYAU,003IV000010tSnNYAU,006ci00000SrNQMAA3
001IV000015RzTUYA0,012IV000001yk7WYAQ,Renewal,Backlog,EUR,true,false,30 days,Email,Transfer,lmetzger@smlf.fr,Redevance 2026,false,,,SOCIETE METALLURGIQUE LIOTARD FRERES sa,SAVATON Marie Christine,Route départementale 751 -   Les Levées de la Loire,ST PIERRE DES CORPS,37700,FR,SOCIETE METALLURGIQUE LIOTARD FRERES sa,Facture originale électronique à,lmetzger@smlf.fr,.,FR,003IV000010tPaFYAU,003IV000010tPaFYAU,006ci00000SrNQNAA3
001IV000015RhU3YAK,012IV000001yk7WYAQ,Renewal,Backlog,EUR,true,false,30 days,Email,Transfer,marc.bonnafous@lacooperativewelcoop.com,Redevance 2026,false,,,D'MEDICA sa,Service Comptabilité,4 rue Jean Giono -   BP 10063,BALMA Cedex,31133,FR,D'MEDICA sa,Facture originale électronique à,marc.bonnafous@lacooperativewelcoop.com,.,FR,003IV000010t1u6YAA,003IV000010t1u8YAA,006ci00000SrNQOAA3
001IV000015RewFYAS,012IV000001yk7WYAQ,Renewal,Backlog,EUR,true,false,30 days,Email,Transfer,marion.bougeard@maison-colibri.com,Redevance 2026,false,,,COLIBRI sasu,,2 Route de Marennes,PONS,17800,FR,COLIBRI sasu,Facture originale électronique à,marion.bougeard@maison-colibri.com,.,FR,003IV000010tIiVYAU,003IV000010tRUFYA2,006ci00000SrNQPAA3
001IV000015S2ePYAS,012IV000001yk7WYAQ,Renewal,Backlog,EUR,true,false,30 days,Email,Transfer,mdesablin@flip.fr,Redevance 2026,false,,,FLIP sas,,ZI rue Pierre Et Marie Curie,GONDECOURT,59147,FR,FLIP sas,Facture originale électronique à,mdesablin@flip.fr,.,FR,003IV000010tIelYAE,003IV000010tIelYAE,006ci00000SrNQQAA3
001IV000015S50RYAS,012IV000001yk7WYAQ,Renewal,Backlog,EUR,true,false,30 days,Email,Transfer,metso.fr105@bscs.basware.com,Redevance 2026,true,,2026-01-01,METSO FRANCE SAS,RH,41 Rue de la République 71000 MACON,MACON,69830,FR,METSO FRANCE SAS,Facture originale électronique à,metso.fr105@bscs.basware.com,.,FR,003IV000010t3wmYAA,003IV000010t3wmYAA,006ci00000SrNQRAA3
001IV000015SAHwYAO,012IV000001yk7WYAQ,Renewal,Backlog,EUR,true,false,30 days,Email,Transfer,mgrelier@cetih.eu,Redevance 2026,false,,,CETIH DEVELOPPEMENT sas,,2 rue Gustave Eiffel - BP 41,MACHECOUL-SAINT-MEME,44270,FR,CETIH DEVELOPPEMENT sas,Facture originale électronique à,mgrelier@cetih.eu,.,FR,003IV000010tTtEYAU,003IV000010tTtEYAU,006ci00000SrNQSAA3
001IV000015RuolYAC,012IV000001yk7WYAQ,Renewal,Backlog,EUR,true,false,60 days,Email,Transfer,mhcs.comptafrs@moethennessy.com,Redevance 2026,true,,2026-01-01,MHCS sa,,9 avenue de Champagne,EPERNAY CEDEX,51207,FR,MHCS sa,Facture originale électronique à,mhcs.comptafrs@moethennessy.com,.,FR,003IV000010tHInYAM,003IV000010tHInYAM,006ci00000SrNQTAA3
001IV000015RuomYAC,012IV000001yk7WYAQ,Renewal,Backlog,EUR,true,false,60 days,Email,Transfer,mhcs.comptafrs@moethennessy.com,Redevance 2026,true,,2026-01-01,MHCS sa,,9 avenue de Champagne,EPERNAY,51200,FR,MHCS sa,Facture originale électronique à,mhcs.comptafrs@moethennessy.com,.,FR,003IV000010tHInYAM,003IV000010tHInYAM,006ci00000SrNQUAA3
001IV000015S8idYAC,012IV000001yk7WYAQ,Renewal,Backlog,EUR,true,false,30 days,Email,Transfer,mlc-demat-frn@maitres-laitiers.fr,Redevance 2026,false,,,COOPERATIVE AGRICOLE LAITIERE LES MAITRES LAITIERS DU COTENTIN,,8 Route de Valognes,SOTTEVAST,50260,FR,LES MAITRES LAITIERS DU COTENTIN,Facture originale électronique à,mlc-demat-frn@maitres-laitiers.fr,.,FR,003IV000010s6R1YAI,003IV000018MJ4DYAW,006ci00000SrNQVAA3
001IV000015S85yYAC,012IV000001yk7WYAQ,Renewal,Backlog,EUR,true,false,30 days,Email,Transfer,m-perchoc@bruneau.fr,Redevance 2026,false,,,JM BRUNEAU sas,,19 avenue de la Baltique,VILLEBON SUR YVETTE,91140,FR,JM BRUNEAU sas,Facture originale électronique à,m-perchoc@bruneau.fr,.,FR,003IV000010tRdaYAE,003IV000010tRdaYAE,006ci00000SrNQWAA3
001IV000015S50BYAS,012IV000001yk7WYAQ,Renewal,Backlog,EUR,true,false,30 days,Email,Transfer,nathalie.lessert@georgeshelfer.com,Redevance 2026,false,,,GEORGES HELFER SA FRANCE,,62 avenue de la Villette -  BP Fleurs 389 -,RUNGIS CEDEX,94637,FR,GEORGES HELFER SA FRANCE,Facture originale électronique à,nathalie.lessert@georgeshelfer.com,.,FR,003IV000010tRytYAE,003IV000010tRytYAE,006ci00000SrNQXAA3
001IV000015S2eBYAS,012IV000001yk7WYAQ,Renewal,Backlog,EUR,true,false,30 days,Email,Transfer,olichon@olichon.fr,Redevance 2026,false,,,OLICHON sasu,,ZI de Keryado - Rue Jules Védrines,LORIENT,56100,FR,OLICHON sasu,Facture originale électronique à,olichon@olichon.fr,.,FR,003IV000010tRVSYA2,003IV000010tRVSYA2,006ci00000SrNQYAA3
001IV000015RyE7YAK,012IV000001yk7WYAQ,Renewal,Backlog,EUR,true,false,30 days,Email,Transfer,only.invoices.eurocoustic@saint-gobain.com,Redevance 2026,false,,,SAINT GOBAIN EUROCOUSTIC sasu,,ZI DE Bellevue,GENOUILLAC,23350,FR,SAINT GOBAIN EUROCOUSTIC sasu,Facture originale électronique à,only.invoices.eurocoustic@saint-gobain.com,.,FR,003IV000010tJZgYAM,003IV000010tJZgYAM,006ci00000SrNQZAA3
001IV000015RyE6YAK,012IV000001yk7WYAQ,Renewal,Backlog,EUR,true,false,30 days,Email,Transfer,only.invoices.sepr@saint-gobain.com,Redevance 2026,true,,2026-01-01,SOCIETE EUROPEENNE DES PRODUITS REFRACTAIRES sas,,2539 Route de Sorgues,LE PONTET,84130,FR,SOCIETE EUROPEENNE DES PRODUITS REFRACTAIRES sas,Facture originale électronique à,only.invoices.sepr@saint-gobain.com,.,FR,003IV000010tJaBYAU,003IV000010tJaBYAU,006ci00000SrNQaAAN
001IV000015S50JYAS,012IV000001yk7WYAQ,Renewal,Backlog,EUR,true,false,30 days,Email,Transfer,only.invoices.sggsmi@saint-gobain.com,Redevance 2026,false,,,SAINT-GOBAIN GLASS SOLUTIONS MENUISIERS INDUSTRIELS sasu - SGGSMI,,ZI du Vivier,SAINT-PIERRE-DES-ECHAUBROGNES,79700,FR,SAINT-GOBAIN GLASS SOLUTIONS MENUISIERS INDUSTRIELS sasu - SGGSMI,Facture originale électronique à,only.invoices.sggsmi@saint-gobain.com,.,FR,003IV000010tWSyYAM,003IV000010tWSyYAM,006ci00000SrNQbAAN
001IV000015S8j8YAC,012IV000001yk7WYAQ,Renewal,Backlog,EUR,true,false,45 days,Email,Transfer,osfp.app@suntory.com,Redevance 2026,true,,2026-01-01,ORANGINA SUNTORY FRANCE PRODUCTION sasu,,433 Chemin des Matouses,CHATEAUNEUF-DE-GADAGNE,84470,FR,ORANGINA SUNTORY FRANCE PRODUCTION sasu,Facture originale électronique à,osfp.app@suntory.com,.,FR,003IV000010su8dYAA,003IV000010su8eYAA,006ci00000SrNQcAAN
001IV000015S6a8YAC,012IV000001yk7WYAQ,Renewal,Backlog,EUR,true,false,30 days,Email,Transfer,p.pelard@beneteauhabitat.com,Redevance 2026,false,,,BIO HABITAT sa,,Rue Charles Tellier,LA CHAIZE LE VICOMTE,85310,FR,BIO HABITAT sa,Facture originale électronique à,p.pelard@beneteauhabitat.com,.,FR,003IV000010sxGuYAI,003IV000010sxGuYAI,006ci00000SrNQdAAN
001IV000015S863YAC,012IV000001yk7WYAQ,Renewal,Backlog,EUR,true,false,30 days,Paper,Transfer,,Redevance 2026,false,,,FENETREA sasu,COMPTABILITE,PA du Chenot - BP4,BEIGNON,56380,FR,FENETREA sasu,Facture originale électronique à,PA du Chenot - BP4,BEIGNON,FR,003IV000010su85YAA,003IV000010su85YAA,006ci00000SrNQeAAN
001IV000015RzTbYAK,012IV000001yk7WYAQ,Renewal,Backlog,EUR,true,false,30 days,Email,Transfer,pascale.nivot@fptindustrial.com,Redevance 2026,false,,,FPT POWERTRAIN TECHNOLOGIES FRANCE sas,,5 rue Pierre Timbaud,GARCHIZY,58600,FR,FPT POWERTRAIN TECHNOLOGIES FRANCE sas,Facture originale électronique à,pascale.nivot@fptindustrial.com,.,FR,003IV000010tPaSYAU,003IV000010tPaSYAU,006ci00000SrNQfAAN
001IV000015RzTVYA0,012IV000001yk7WYAQ,Renewal,Backlog,EUR,true,false,30 days,Email,Transfer,paul.bertrand@ricoh.fr,Redevance 2026,false,,,RICOH FRANCE sas,,7-9 Avenue Robert Schuman,RUNGIS,94150,FR,RICOH FRANCE sas,Facture originale électronique à,paul.bertrand@ricoh.fr,.,FR,003IV000010t2g2YAA,003IV000010t2g3YAA,006ci00000SrNQgAAN
001IV000015RvVPYA0,012IV000001yk7WYAQ,Renewal,Backlog,EUR,true,false,60 days,Email,Transfer,Paul.Raymond@purina.nestle.com,Redevance 2026,true,,2026-01-01,NESTLE PURINA PETCARE FRANCE sas,PO Box 1282,Urzad Pocztowy 44,WROCLAW,50- 986,FR,NESTLE PURINA PETCARE FRANCE sas,Facture originale électronique à,Paul.Raymond@purina.nestle.com,.,FR,003IV000010tTxyYAE,003IV000010tTxyYAE,006ci00000SrNQhAAN
001IV000015RyKzYAK,012IV000001yk7WYAQ,Renewal,Backlog,EUR,true,false,30 days,Email,Transfer,pdf-invoices.fr@boehringer-ingelheim.com,Redevance 2026,true,,2026-01-01,BOEHRINGER INGELHEIM ANIMAL HEALTH FRANCE scs,RH - Talent GoA,29 avenue Tony Garnier,LYON,69007,FR,BOEHRINGER INGELHEIM ANIMAL HEALTH FRANCE scs,Facture originale électronique à,pdf-invoices.fr@boehringer-ingelheim.com,.,FR,003IV000010tHIpYAM,003IV000010tHIpYAM,006ci00000SrNQiAAN
001IV000015RewPYAS,012IV000001yk7WYAQ,Renewal,Backlog,EUR,true,false,30 days,Email,Transfer,pierrick.manuel@barilla.com,Redevance 2026,true,,2026-01-01,BARILLA FRANCE sas - Site de Saint-Vulbas,RH,860 Avenue des Bergeries,SAINT-VULBAS,1150,FR,BARILLA FRANCE sas - Site de Saint-Vulbas,Facture originale électronique à,pierrick.manuel@barilla.com,.,FR,003IV000010tRThYAM,003IV000010tRThYAM,006ci00000SrNQjAAN
001IV000015SJXRYA4,012IV000001yk7WYAQ,Renewal,Backlog,EUR,true,false,30 days,Paper,Transfer,,Redevance 2026,false,,,ITRON FRANCE,,15 Avenue du Maréchal Juin CS 35002,MASSY CEDEX,91301,FR,ITRON FRANCE,Facture originale électronique à,South city delivery,CORK,FR,003IV000010su9SYAQ,003IV000010su9SYAQ,006ci00000SrNQkAAN
001IV000015S8ieYAC,012IV000001yk7WYAQ,Renewal,Backlog,EUR,true,false,30 days,Email,Transfer,prf.facturesfournisseurs@pernod-ricard.com,Redevance 2026,false,,,PERNOD RICARD FRANCE sas,Administratif,6 Rue de Seclin,VENDEVILLE,59175,FR,PERNOD RICARD FRANCE sas,Facture originale électronique à,prf.facturesfournisseurs@pernod-ricard.com,.,FR,003IV000010s6QvYAI,003IV000010s6QvYAI,006ci00000SrNQlAAN
001IV000015S4lEYAS,012IV000001yk7WYAQ,Renewal,Backlog,EUR,true,false,30 days,Email,Transfer,quentin.feist@wurth.fr,Redevance 2026,false,,,WURTH FRANCE sas,,Rue Georges Besse,ERSTEIN,67150,FR,WURTH FRANCE sas,Facture originale électronique à,quentin.feist@wurth.fr,.,FR,003IV000010tRywYAE,003IV000010tRywYAE,006ci00000SrNQmAAN
001IV000015S50EYAS,012IV000001yk7WYAQ,Renewal,Backlog,EUR,true,false,30 days,Email,Transfer,regine.zwiebel@llproducts.com,Redevance 2026,false,,,L&L PRODUCTS EUROPE SAS,Service Finance,1 rue Charles Lindbergh ZA,ALTORF,67120,FR,L&L PPRODUCTS EUROPE SAS,Facture originale électronique à,regine.zwiebel@llproducts.com,.,FR,003IV000010tQI0YAM,003IV000010tQHdYAM,006ci00000SrNQnAAN
001IV000015S8ihYAC,012IV000001yk7WYAQ,Renewal,Backlog,EUR,true,false,30 days,Email,Transfer,rh.interim@ieseg.fr,Redevance 2026,false,,,INSTITUT ECONOMIE SCIENTIFIQUE GESTION association,IESEG School of Management ad,3 rue de la Digue,LILLE,59000,FR,IESEG School of Management ad,Facture originale électronique à,rh.interim@ieseg.fr,.,FR,003IV000010t2jrYAA,003IV000010t2jrYAA,006ci00000SrNQoAAN
001IV000015RyDnYAK,012IV000001yk7WYAQ,Renewal,Backlog,EUR,true,false,30 days,Email,Direct Debit,rh.reims@seyfert.fr,Redevance 2026,false,,,SEYFERT SAS,,Rue du Val Clair - CS 11006,REIMS CEDEX 2,51683,FR,SEYFERT SAS,Facture originale électronique à,rh.reims@seyfert.fr,.,FR,003IV000010tJXhYAM,003IV000010tJXhYAM,006ci00000SrNQpAAN
001IV000015Rew9YAC,012IV000001yk7WYAQ,Renewal,Backlog,EUR,true,false,30 days,Email,Transfer,rh@moulinsbourgeois.com,Redevance 2026,false,,,LES MOULINS DE VERDELOT sas,,Impasse du Moulin,VERDELOT,77510,FR,LES MOULINS DE VERDELOT sas,Facture originale électronique à,rh@moulinsbourgeois.com,.,FR,003IV000010sxGTYAY,003IV000010tRTVYA2,006ci00000SrNQqAAN
001IV000015S50IYAS,012IV000001yk7WYAQ,Renewal,Backlog,EUR,true,false,30 days,Email,Transfer,rh@nicomatic.fr,Redevance 2026,false,,,NICOMATIC sa,,173 rue des Fougères,BONS EN CHABLAIS,74890,FR,NICOMATIC sa,Facture originale électronique à,rh@nicomatic.fr,.,FR,003IV000010tQI2YAM,003IV000010tQI2YAM,006ci00000SrNQrAAN
001IV000015S2e7YAC,012IV000001yk7WYAQ,Renewal,Backlog,EUR,true,false,30 days,Email,Transfer,rh@sgt-france.com,Redevance 2026,false,,,SOCIETE GENERALE DES TECHNIQUES - SGT sas,,3 rue de l'ile Macé,REZE,44400,FR,SOCIETE GENERALE DES TECHNIQUES - SGT sas,Facture originale électronique à,rh@sgt-france.com,.,FR,003IV000010tRVQYA2,003IV000010tRVQYA2,006ci00000SrNQsAAN
001IV000015S6ZwYAK,012IV000001yk7WYAQ,Renewal,Backlog,EUR,true,false,30 days,Email,Transfer,rhpaie@jeldwen.com,Redevance 2026,false,,,JELD-WEN FRANCE sas,Ressources Humaines,35 avenue de la Ténarèze,EAUZE,32800,FR,JELD-WEN FRANCE sas,Facture originale électronique à,rhpaie@jeldwen.com,.,FR,003IV000010sxG9YAI,003IV000010sxGPYAY,006ci00000SrNQtAAN
001IV000015RyDhYAK,012IV000001yk7WYAQ,Renewal,Backlog,EUR,true,false,30 days,Email,Transfer,robyn.stormont@dupont.com,Redevance 2026,false,,,DSP sas,,Rue des Grands Navoirs,CHAUNY,2300,FR,DSP sas,Facture originale électronique à,robyn.stormont@dupont.com,.,FR,003IV000010tQIRYA2,003IV000010tQIRYA2,006ci00000SrNQuAAN
001IV000015S50DYAS,012IV000001yk7WYAQ,Renewal,Backlog,EUR,true,false,30 days,Paper,Transfer,,Redevance 2026,false,,,SOCAMAINE sa,,Route de Paris,CHAMPAGNE,72470,FR,SOCAMAINE sa,,Route de Paris,CHAMPAGNE,FR,003IV000010t2k9YAA,003IV000010t2kCYAQ,006ci00000SrNQvAAN
001IV000015RewJYAS,012IV000001yk7WYAQ,Renewal,Backlog,EUR,true,false,30 days,Email,Transfer,roxane.holat@cenexi.com,Redevance 2026,false,,,CENEXI HSC sasu,Comptabilité fournisseurs,2 rue Louis Pasteur,HEROUVILLE SAINT CLAIR,14200,FR,CENEXI HSC sasu,Facture originale électronique à,roxane.holat@cenexi.com,.,FR,003IV000010tRTeYAM,003IV000010tIiDYAU,006ci00000SrNQwAAN
001IV000015RewQYAS,012IV000001yk7WYAQ,Renewal,Backlog,EUR,true,false,30 days,Email,Transfer,sabrina.vetel@eureden.com,Redevance 2026,false,,,D'AUCY LOCMINE sasu,,Le Belvaux,LOCMINE,56500,FR,D'AUCY LOCMINE sasu,Facture originale électronique à,sabrina.vetel@eureden.com,.,FR,003IV000010tRTiYAM,003IV000010tRTiYAM,006ci00000SrNQxAAN
001IV000015S8iyYAC,012IV000001yk7WYAQ,Renewal,Backlog,EUR,true,false,30 days,Email,Transfer,sandra.rodrigues@eoliance.com,Redevance 2026,false,,,EOLIANCE sas,Comptabilité,949 Avenue Saint-Just,VAUX LE PENIL,77000,FR,EOLIANCE sas,Facture originale électronique à,sandra.rodrigues@eoliance.com,.,FR,003IV000010su8tYAA,003IV000010su8tYAA,006ci00000SrNQyAAN
001IV000015RzTfYAK,012IV000001yk7WYAQ,Renewal,Backlog,EUR,true,false,30 days,Email,Transfer,scan.invoices@barbiergroup.com,Redevance 2026,false,,,SOCIETE D'EXTRUSION DU POLYETHYLENE A. BARBIER ET CIE sas,,La GUIDE,SAINTE SIGOLENE,43600,FR,SOCIETE D'EXTRUSION DU POLYETHYLENE A. BARBIER ET CIE sas,Facture originale électronique à,scan.invoices@barbiergroup.com,.,FR,003IV000010tPaIYAU,003IV000010tPaIYAU,006ci00000SrNQzAAN
001IV000015S2SOYA0,012IV000001yk7WYAQ,Renewal,Backlog,EUR,true,false,30 days,Email,Transfer,scomptabilite@baumer.com,Redevance 2026,false,,,BAUMER BOURDON HAENNI SAS,,125 Rue de la Marre,VENDOME,41100,FR,BAUMER BOURDON HAENNI SAS,Facture originale électronique à,scomptabilite@baumer.com,.,FR,003IV000010su8EYAQ,003IV000010su8EYAQ,006ci00000SrNR0AAN
001IV000015S50PYAS,012IV000001yk7WYAQ,Renewal,Backlog,EUR,true,false,30 days,Email,Transfer,serv.fournisseurslhh@lhh.com,Redevance 2026,false,,,LHH sasu,Comptabilité Fournisseurs,Coeur Défense Tour A 110   Espl. du Général de Gaulle CS 70226,COURBEVOIE,92400,FR,LHH sasu,Facture originale électronique à,serv.fournisseurslhh@lhh.com,.,FR,003IV000010tQIUYA2,003IV000010tQIUYA2,006ci00000SrNR1AAN
001IV000015S85qYAC,012IV000001yk7WYAQ,Renewal,Backlog,EUR,true,false,30 days,Email,Transfer,service.comptabilite.moreac@greenyardfrozen.com,Redevance 2026,false,,,GREENYARD FROZEN FRANCE SAS,,Z.A. du Barderff,MOREAC,56500,FR,GREENYARD FROZEN FRANCE SAS,Facture originale électronique à,service.comptabilite.moreac@greenyardfrozen.com,.,FR,003IV000010su8AYAQ,003IV000010su8AYAQ,006ci00000SrNR2AAN
001IV000015SAHQYA4,012IV000001yk7WYAQ,Renewal,Backlog,EUR,true,false,30 days,Email,Transfer,service.comptabilite@camus.fr,Redevance 2026,false,,,CAMUS LA GRANDE MARQUE sasu,Comptabilité,29 rue Marguerite de Navarre,COGNAC,16100,FR,CAMUS LA GRANDE MARQUE sasu,Facture originale électronique à,service.comptabilite@camus.fr,.,FR,003IV000010t2G7YAI,003IV000010rvH8YAI,006ci00000SrNR3AAN
001IV000015SAFdYAO,012IV000001yk7WYAQ,Renewal,Backlog,EUR,true,false,30 days,Email,Transfer,service_compta@stokomani.fr,Redevance 2026,false,,,STOKOMANI sasu,Comptabilité,3 avenue des Charmes,CREIL,60100,FR,STOKOMANI sasu,Facture originale électronique à,service_compta@stokomani.fr,.,FR,003IV000010t2G3YAI,003IV000010t2G3YAI,006ci00000SrNR4AAN
001IV000015SAFbYAO,012IV000001yk7WYAQ,Renewal,Backlog,EUR,true,false,30 days,Email,Transfer,serviceachat-migennes@stradal.fr,Redevance 2026,false,,,STRADAL sasu,,51 rue Andre Maurois -   Parc d'activités de l'Armancon - BP 13,MIGENNES,89400,FR,STRADAL sasu,Facture originale électronique à,serviceachat-migennes@stradal.fr,.,FR,003IV000010rvH2YAI,003IV000010rvH2YAI,006ci00000SrNR5AAN
001IV000015SAHSYA4,012IV000001yk7WYAQ,Renewal,Backlog,EUR,true,false,30 days,Email,Transfer,service-achats.sps.fr@spsglobal.com,Redevance 2026,false,,,SPS FRANCE & BENELUX SAS,,60-62 rue de Wattignies,PARIS,75012,FR,SPS FRANCE & BENELUX SAS,Facture originale électronique à,service-achats.sps.fr@spsglobal.com,.,FR,003IV000010rvHDYAY,003IV000010rvHDYAY,006ci00000SrNR6AAN
001IV000015S2e9YAC,012IV000001yk7WYAQ,Renewal,Backlog,EUR,true,false,30 days,Email,Transfer,service-fournisseurs@crustac.fr,Redevance 2026,false,,,CRUSTA C sas,Comptabilité Fournisseurs,Route de Toulouse - Z.I. Buconis,L'ISLE JOURDAIN,32600,FR,CRUSTA C sas,Facture originale électronique à,service-fournisseurs@crustac.fr,.,FR,003IV000010tRWAYA2,003IV000010tRWAYA2,006ci00000SrNR7AAN
001IV000015SAHnYAO,012IV000001yk7WYAQ,Renewal,Backlog,EUR,true,false,30 days,Email,Transfer,smb_vzn_finance@jtekt.eu,Redevance 2026,false,,,JTEKT BEARINGS FRANCE SAS,,61 Route de Foecy,VIERZON CEDEX,18102,FR,JTEKT BEARINGS FRANCE SAS,Facture originale électronique à,smb_vzn_finance@jtekt.eu,.,FR,003IV000010t6CGYAY,003IV000010t6CGYAY,006ci00000SrNR8AAN
001IV000015RewAYAS,012IV000001yk7WYAQ,Renewal,Backlog,EUR,true,false,30 days,Email,Transfer,stephanie.regnier@nefab.com,Redevance 2026,false,,,NEFAB sas,,Route Nationale 20 Nord,SALBRIS,41300,FR,NEFAB sas,Facture originale électronique à,stephanie.regnier@nefab.com,.,FR,003IV000010tRTWYA2,003IV000010tRTwYAM,006ci00000SrNR9AAN
001IV000015RyL2YAK,012IV000001yk7WYAQ,Renewal,Backlog,EUR,true,false,30 days,Email,Transfer,supplier.accounting@radiall.com,Redevance 2026,false,,,RADIALL sa,,Rue Émile Romanet - ZI,VOREPPE,38340,FR,RADIALL sa,Facture originale électronique à,supplier.accounting@radiall.com,.,FR,003IV000010tJXgYAM,003IV000010tJXgYAM,006ci00000SrNRAAA3
001IV000015Rew6YAC,012IV000001yk7WYAQ,Renewal,Backlog,EUR,true,false,30 days,Email,Transfer,supplier.invoice@groupe-lemoine.com,Redevance 2026,false,,,LEMOINE FRANCE sas,,Ciriam Le Pont De Vère,CALIGNY,61100,FR,LEMOINE FRANCE sas,Facture originale électronique à,supplier.invoice@groupe-lemoine.com,.,FR,003IV000010tRTrYAM,003IV000010tRUJYA2,006ci00000SrNRBAA3
001IV000015SAI1YAO,012IV000001yk7WYAQ,Renewal,Backlog,EUR,true,false,45 days,Email,Transfer,suppliers.invoices@antolin.com,Redevance 2026,false,,,GRUPO ANTOLIN BESANCON sasu,,8 Rue Gérard Mantion,BESANCON,25000,FR,GRUPO ANTOLIN BESANCON sasu,Facture originale électronique à,suppliers.invoices@antolin.com,.,FR,003IV000010su8ZYAQ,003IV000010su8ZYAQ,006ci00000SrNRCAA3
001IV000015SAHvYAO,012IV000001yk7WYAQ,Renewal,Backlog,EUR,true,false,30 days,Email,Transfer,suppliers.invoices@grupoantolin.com,Redevance 2026,false,,,"GRUPO ANTOLIN VOSGES, SAS",,30 Rue d'Alsace,RUPT-SUR-MOSELLE,88360,FR,"GRUPO ANTOLIN VOSGES, SAS",Facture originale électronique à,suppliers.invoices@grupoantolin.com,.,FR,003IV000010tTsgYAE,003IV000010tTsgYAE,006ci00000SrNRDAA3
001IV000015S8iSYAS,012IV000001yk7WYAQ,Renewal,Backlog,EUR,true,false,30 days,Email,Transfer,suppliers@technoflex.net,Redevance 2026,false,,,TECHNOFLEX sas,,ZA de Bassilour,BIDART,64210,FR,TECHNOFLEX sas,Facture originale électronique à,suppliers@technoflex.net,.,FR,003IV000010sxFuYAI,003IV000010sxFuYAI,006ci00000SrNREAA3
001IV000015RzTYYA0,012IV000001yk7WYAQ,Renewal,Backlog,EUR,true,false,30 days,Email,Transfer,suppliersaccounting@groupe-streit.com,Redevance 2026,false,,,STREIT MECANIQUE sa,,1486 Route de Soye,PAYS DE CLERVAL,25340,FR,STREIT MECANIQUE sa,Facture originale électronique à,suppliersaccounting@groupe-streit.com,.,FR,003IV000010tPaUYAU,003IV000010tPaUYAU,006ci00000SrNRFAA3
001IV000015S86HYAS,012IV000001yk7WYAQ,Renewal,Backlog,EUR,true,false,30 days,Email,Transfer,suppliersinvoice@deltadore.com,Redevance 2026,true,,2026-01-01,DELTA DORE sa,Comptabilité fournisseurs,Le Vieux Chêne,BONNEMAIN,35270,FR,DELTA DORE sa,Facture originale électronique à,suppliersinvoice@deltadore.com,.,FR,003IV000010tJZqYAM,003IV000010tJZqYAM,006ci00000SrNRGAA3
001IV000015SAHlYAO,012IV000001yk7WYAQ,Renewal,Backlog,EUR,true,false,30 days,Email,Transfer,swaryn@graindemalice.com,Redevance 2026,false,,,EPHIGEA sasu,,1 rue de la Couture - Le Hub Bâtiment A -   Zone de la Pilaterie - CS 76015,MARCQ EN BAROEUL,59700,FR,EPHIGEA sasu,Facture originale électronique à,swaryn@graindemalice.com,.,FR,003IV000010su99YAA,003IV000010su9AYAQ,006ci00000SrNRHAA3
001IV000015S2eVYAS,012IV000001yk7WYAQ,Renewal,Backlog,EUR,true,false,30 days,Email,Transfer,tboilleaut@moutarde.com,Redevance 2026,false,,,EUROPEENNE DE CONDIMENTS sasu,Finance-comptablité,7 rue Jean Moulin,COUCHEY,21160,FR,EUROPEENNE DE CONDIMENTS sasu,Facture originale électronique à,tboilleaut@moutarde.com,.,FR,003IV000010tRWiYAM,003IV000010tIdoYAE,006ci00000SrNRIAA3
001IV000015SAHzYAO,012IV000001yk7WYAQ,Renewal,Backlog,EUR,true,false,30 days,Email,Transfer,thierry.doyennel@hamelinbrands.com,Redevance 2026,false,,,FINHAM sas,,1 Rue du Campus,HEROUVILLE SAINT CLAIR,14200,FR,FINHAM sas,Facture originale électronique à,thierry.doyennel@hamelinbrands.com,.,FR,003IV000010su88YAA,003IV000010su88YAA,006ci00000SrNRJAA3
001IV000015S6a0YAC,012IV000001yk7WYAQ,Renewal,Backlog,EUR,true,false,30 days,Email,Transfer,tiphaine.lepottier@lecta.com,Redevance 2026,false,,,CONDAT sasu,,23 Avenue Georges Haupinot,LE LARDIN ST LAZARE,24570,FR,CONDAT sasu,Facture originale électronique à,tiphaine.lepottier@lecta.com,.,FR,003IV000010sxGMYAY,003IV000010sxGMYAY,006ci00000SrNRKAA3
001IV000015S2eRYAS,012IV000001yk7WYAQ,Renewal,Backlog,EUR,true,false,30 days,Email,Transfer,valerie.chantelauze@gcpat.com,Redevance 2026,false,,,GCP PRODUITS DE CONSTRUCTION SAS,,ZA Les Foulletons,LARNAUD,39140,FR,GCP PRODUITS DE CONSTRUCTION SAS,Facture originale électronique à,valerie.chantelauze@gcpat.com,.,FR,003IV000010sxGnYAI,003IV000010sxGnYAI,006ci00000SrNRLAA3
001IV000015SAI2YAO,012IV000001yk7WYAQ,Renewal,Backlog,EUR,true,false,45 days,Email,Transfer,vendor1007@araymond.com,Redevance 2026,true,,2026-01-01,ARaymond France SAS,,113 Cours Berriat - BP 157,GRENOBLE CEDEX 1,38019,FR,ARaymond France SAS,Facture originale électronique à,vendor1007@araymond.com,.,FR,003IV000010su8SYAQ,003IV000010su8SYAQ,006ci00000SrNRMAA3
001IV000015SAI3YAO,012IV000001yk7WYAQ,Renewal,Backlog,EUR,true,false,30 days,Email,Transfer,vendor1013@araymond.com,Redevance 2026,false,,,ARAYMOND FLUID CONNECTION FRANCE sasu,,123 Rue Hilaire de Chardonnet,GRENOBLE,38000,FR,ARAYMOND FLUID CONNECTION FRANCE sasu,Facture originale électronique à,vendor1013@araymond.com,.,FR,003IV000010su8NYAQ,003IV000010su8NYAQ,006ci00000SrNeHAAV
001IV000015SAI4YAO,012IV000001yk7WYAQ,Renewal,Backlog,EUR,true,false,30 days,Email,Transfer,vendor1036@araymond.com,Redevance 2026,true,,2026-01-01,ARAYMONDLIFE sasu,Service Administratif et Financier,1 Rue Louis Besançon,SAINT-EGREVE,38120,FR,ARAYMONDLIFE sasu,Facture originale électronique à,vendor1036@araymond.com,.,FR,003IV000010su8KYAQ,003IV000010su8KYAQ,006ci00000SrNeIAAV
001IV000015S8jDYAS,012IV000001yk7WYAQ,Renewal,Backlog,EUR,true,false,30 days,Email,Transfer,veronique.bochet@cera.caisse-epargne.fr,Redevance 2026,true,,2026-01-01,CAISSE D'EPARGNE ET DE PREVOYANCE DE RHONE ALPES sa,DEPARTEMENT EMPLOI ET CARRIERES,116 Cours Lafayette,LYON,69003,FR,CAISSE D'EPARGNE ET DE PREVOYANCE DE RHONE ALPES sa,Facture originale électronique à,veronique.bochet@cera.caisse-epargne.fr,.,FR,003IV000010su96YAA,003IV000010su97YAA,006ci00000SrNeJAAV
001IV000015S8iaYAC,012IV000001yk7WYAQ,Renewal,Backlog,EUR,true,false,30 days,Email,Transfer,veronique.gosse@lisi-group.com,Redevance 2026,false,,,LISI AEROSPACE FORGED INTEGRATED SOLUTIONS sas,RH,39 rue des Forges,BOLOGNE,52310,FR,LISI AEROSPACE FORGED INTEGRATED SOLUTIONS sas,Facture originale électronique à,veronique.gosse@lisi-group.com,.,FR,003IV000010s6QdYAI,003IV000010s6QdYAI,006ci00000SrNeKAAV
001IV000015RewHYAS,012IV000001yk7WYAQ,Renewal,Backlog,EUR,true,false,30 days,Email,Transfer,videocodeur-itesoft@savencia.com,Redevance 2026,true,,2026-01-01,ARMOR PROTEINES sasu,AG0014AA,19 bis rue de la Libération - TSA 40002,SAINT LO CEDEX 9,59951,FR,ARMOR PROTEINES sasu,Facture originale électronique à,videocodeur-itesoft@savencia.com,.,FR,003IV000010su8YYAQ,003IV000010su8YYAQ,006ci00000SrNeLAAV
001IV000015RKNcYAO,012IV000001yk7WYAQ,Renewal,Backlog,EUR,true,false,30 days,Email,Transfer,vishaysa.ap@vishay.com,Redevance 2026,false,,,VISHAY SA,,199 Boulevard de la Madeleine,NICE,6000,FR,VISHAY SA,Facture originale électronique à,vishaysa.ap@vishay.com,.,FR,003IV000010t2QQYAY,003IV000010t2QQYAY,006ci00000SrNeMAAV
001IV000015S6a1YAC,012IV000001yk7WYAQ,Renewal,Backlog,EUR,true,false,30 days,Email,Transfer,xfuchs@charcupac.fr,Redevance 2026,false,,,FINE LAME sa,,ZI Chemin de Gayan,BORDERES SUR L'ECHEZ,65320,FR,FINE LAME sa,Facture originale électronique à,xfuchs@charcupac.fr,.,FR,003IV000010t2Z3YAI,003IV000010t2Z3YAI,006ci00000SrNeNAAV
001IV000015RewEYAS,012IV000001yk7WYAQ,Renewal,Backlog,EUR,true,false,30 days,Paper,Transfer,,Redevance 2026,false,,,UCELIA sasu,Service Comptabilité,ZI La Petite Borde,USSEL,19200,FR,UCELIA sasu,Service Comptabilité,ZI La Petite Borde,USSEL,FR,003IV000010su8sYAA,003IV000010su8sYAA,006ci00000SrNeOAAV
001IV000015S85oYAC,012IV000001yk7WYAQ,Renewal,Backlog,EUR,true,false,45 days,Paper,Transfer,,Redevance 2026,false,,,LES ZELLES sasu,Comptabilité Fournisseurs,ZI Rue des Ecorces,LA BRESSE,88250,FR,LES ZELLES sasu,Comptabilité Fournisseurs,ZI Rue des Ecorces,LA BRESSE,FR,003IV000010tIeeYAE,003IV000010tIeeYAE,006ci00000SrNePAAV
001IV000015S6a2YAC,012IV000001yk7WYAQ,Renewal,Backlog,EUR,true,false,30 days,Paper,Transfer,,Redevance 2026,false,,,GMR INVESTISSEMENTS sas,,Zone Industrielle de Longchamp,CERIZAY,79143,FR,GMR INVESTISSEMENTS sas,,Zone Industrielle de Longchamp,CERIZAY,FR,003IV000010sxGHYAY,003IV000010sxFmYAI,006ci00000SrNeQAAV
001IV000015S6a3YAC,012IV000001yk7WYAQ,Renewal,Backlog,EUR,true,false,30 days,Paper,Transfer,,Redevance 2026,false,,,SOCIETE NOUVELLE YABON VERNEUIL sas,,Zone Industrielle du Petit Mesnil,VERNEUIL SUR AVRE,27130,FR,SOCIETE NOUVELLE YABON VERNEUIL sas,,Zone Industrielle du Petit Mesnil,VERNEUIL SUR AVRE,FR,003IV000010sxGXYAY,003IV000010sxGXYAY,006ci00000SrNeRAAV
001IV00001OqxYmYAJ,012IV000001yk7WYAQ,Renewal,Backlog,EUR,true,false,,,,,Redevance 2026,false,,,,,,,,FR,,,,.,FR,,,006ci00000SrNeSAAV
001IV000015S542YAC,012IV000001yk7WYAQ,Renewal,Backlog,EUR,true,false,,,,,Redevance 2026,false,,,,,,,,FR,,,,.,FR,,,006ci00000SrNeTAAV
001IV000015SCZCYA4,012IV000001yk7WYAQ,Renewal,Backlog,EUR,true,false,,,,,Redevance 2026,false,,,,,,,,FR,,,,.,FR,,,006ci00000SrNeUAAV
